{"type":"FeatureCollection","features":[{"type":"Feature","geometry":{"type":"MultiPolygon","coordinates":[[[[212737.3117729805,1498586.3278917582],[212740.6996448873,1498596.0779181912],[212732.64937280264,1498598.8666317652],[212729.26161802834,1498589.1276755875],[212737.3117729805,1498586.3278917582]]]]},"properties":{"height":6.0,"min_height":0.0},"id":"f8138c20-10da-4625-acb4-2990cd1d8e86"},{"type":"Feature","geometry":{"type":"MultiPolygon","coordinates":[[[[212740.6996448873,1498596.0779181912],[212742.16434481856,1498600.2911572051],[212734.1141941995,1498603.09094029],[212732.64937280264,1498598.8666317652],[212740.6996448873,1498596.0779181912]]]]},"properties":{"height":6.0,"min_height":0.0},"id":"0905cb1c-0ee2-43d3-b2ac-de71a5573520"},{"type":"Feature","geometry":{"type":"MultiPolygon","coordinates":[[[[212764.10616710188,1498561.049743449],[212766.54471908498,1498568.164096853],[212759.92937446694,1498570.4279589816],[212757.49082066916,1498563.3136058801],[212764.10616710188,1498561.049743449]]]]},"properties":{"height":6.0,"min_height":0.0},"id":"405d52f1-0842-4eca-b7a4-4edafa594d9e"},{"type":"Feature","geometry":{"type":"MultiPolygon","coordinates":[[[[212743.36560582434,1498584.2251119397],[212746.75347545644,1498593.975138764],[212740.6996448873,1498596.0779181912],[212737.3117729805,1498586.3278917582],[212743.36560582434,1498584.2251119397]]]]},"properties":{"height":6.0,"min_height":0.0},"id":"9ab8583c-6e9f-4023-8bc6-70fb70526d6b"},{"type":"Feature","geometry":{"type":"MultiPolygon","coordinates":[[[[212765.4004631387,1498379.8803313675],[212767.10816141585,1498382.529919732],[212762.64407986368,1498385.4014762416],[212760.93650133355,1498382.7629578433],[212765.4004631387,1498379.8803313675]]]]},"properties":{"height":6.0,"min_height":0.0},"id":"976afd4c-ac24-4a95-bea8-01f8b1474824"},{"type":"Feature","geometry":{"type":"MultiPolygon","coordinates":[[[[212668.77031733393,1498703.2736375735],[212672.18494644645,1498702.5169450075],[212673.4152171195,1498708.083394514],[212670.0005887539,1498708.8400870527],[212668.77031733393,1498703.2736375735]]]]},"properties":{"height":6.0,"min_height":0.0},"id":"fd06c6e1-e5cf-47c1-a270-1cb5104ebe5a"},{"type":"Feature","geometry":{"type":"MultiPolygon","coordinates":[[[[212675.00793400075,1498688.171432483],[212677.5031698133,1498696.514051482],[212672.07236830908,1498698.1340331144],[212669.58796124673,1498689.791296732],[212675.00793400075,1498688.171432483]]]]},"properties":{"height":6.0,"min_height":0.0},"id":"f714e921-4cc8-43a6-991b-1e2350bda885"},{"type":"Feature","geometry":{"type":"MultiPolygon","coordinates":[[[[212721.9811443952,1498746.6479843252],[212722.39494137227,1498749.8430233716],[212716.1427306697,1498750.6305156483],[212715.73976340104,1498747.4353589802],[212721.9811443952,1498746.6479843252]]]]},"properties":{"height":6.0,"min_height":0.0},"id":"38340982-f1d8-4bc6-8561-7b6743c7bc99"},{"type":"Feature","geometry":{"type":"MultiPolygon","coordinates":[[[[212496.10771127418,1498555.3574671377],[212497.1688440615,1498558.312983913],[212490.17708159622,1498560.8245696656],[212489.11582776217,1498557.8579832835],[212496.10771127418,1498555.3574671377]]]]},"properties":{"height":6.0,"min_height":0.0},"id":"6916cd35-8e51-4a7d-a90a-a6cc8caead8d"},{"type":"Feature","geometry":{"type":"MultiPolygon","coordinates":[[[[212490.0287222251,1498605.9961064826],[212489.66333993763,1498610.251363038],[212486.0422038213,1498609.9474993215],[212486.39675498707,1498605.6923602696],[212490.0287222251,1498605.9961064826]]]]},"properties":{"height":6.0,"min_height":0.0},"id":"355546b8-3b36-42d0-a068-1ef261e760c5"},{"type":"Feature","geometry":{"type":"MultiPolygon","coordinates":[[[[212411.97559678555,1498379.8098174932],[212415.91084318055,1498382.1030563577],[212414.48587380553,1498384.5431014935],[212410.55062756286,1498382.2498628811],[212411.97559678555,1498379.8098174932]]]]},"properties":{"height":6.0,"min_height":0.0},"id":"6d20ce89-6f6d-4e7d-ae8f-b2af6b80ac03"},{"type":"Feature","geometry":{"type":"MultiPolygon","coordinates":[[[[212414.17883090157,1498393.170796841],[212414.47520908248,1498396.5221093232],[212408.66407783108,1498397.0391611315],[212408.36769889458,1498393.6878485756],[212414.17883090157,1498393.170796841]]]]},"properties":{"height":6.0,"min_height":0.0},"id":"e12641df-e694-4dcb-8440-40ca132873f7"},{"type":"Feature","geometry":{"type":"MultiPolygon","coordinates":[[[[212387.6051392419,1498538.4351606735],[212388.609237106,1498543.1183820486],[212383.1411043643,1498544.295982757],[212382.13700549223,1498539.6127614114],[212387.6051392419,1498538.4351606735]]]]},"properties":{"height":6.0,"min_height":0.0},"id":"c727a0f8-7202-4a0b-94c0-72ac52e32785"},{"type":"Feature","geometry":{"type":"MultiPolygon","coordinates":[[[[212374.2835430028,1498464.8244682844],[212378.0482721186,1498464.3849989544],[212378.56162527011,1498468.763563504],[212374.7968967973,1498469.2030328778],[212374.2835430028,1498464.8244682844]]]]},"properties":{"height":6.0,"min_height":0.0},"id":"bf60a0cf-1b30-4bad-a1f4-c61d9766c8c7"},{"type":"Feature","geometry":{"type":"MultiPolygon","coordinates":[[[[212267.51710925874,1498373.4971312266],[212270.93551191792,1498373.0835558043],[212271.55502162623,1498378.2580854036],[212268.1366196575,1498378.6716608722],[212267.51710925874,1498373.4971312266]]]]},"properties":{"height":6.0,"min_height":0.0},"id":"371465a8-0c63-47de-bf66-aa8abb1485bf"},{"type":"Feature","geometry":{"type":"MultiPolygon","coordinates":[[[[212256.90723933402,1498597.1818272588],[212259.5970848936,1498604.481636947],[212254.3537617107,1498606.4096571202],[212251.66403504176,1498599.1209174907],[212256.90723933402,1498597.1818272588]]]]},"properties":{"height":6.0,"min_height":0.0},"id":"cec8461b-36a6-46ce-a1f8-0f1ded5b78fc"},{"type":"Feature","geometry":{"type":"MultiPolygon","coordinates":[[[[212261.7332777254,1498390.4766099157],[212265.35673893132,1498389.9943777365],[212265.8525406082,1498393.753154321],[212262.22907993355,1498394.2353865295],[212261.7332777254,1498390.4766099157]]]]},"properties":{"height":6.0,"min_height":0.0},"id":"86983575-f44b-4e68-9bab-f635853212f5"},{"type":"Feature","geometry":{"type":"MultiPolygon","coordinates":[[[[212262.5914368545,1498374.7574226058],[212265.64653077314,1498373.8053130317],[212268.1941399254,1498381.9702164775],[212265.14987764962,1498382.9222081893],[212262.5914368545,1498374.7574226058]]]]},"properties":{"height":6.0,"min_height":0.0},"id":"fa894687-7224-4bed-b26e-c8cf18fad2bc"},{"type":"Feature","geometry":{"type":"MultiPolygon","coordinates":[[[[212153.90010300878,1498541.7729854737],[212068.8272373436,1498553.8026700262],[212067.53627371724,1498544.6609191224],[212152.60916983447,1498532.6312359252],[212153.90010300878,1498541.7729854737]]]]},"properties":{"height":6.0,"min_height":0.0},"id":"de54662e-5375-4f67-8ccc-796b5fa35592"},{"type":"Feature","geometry":{"type":"MultiPolygon","coordinates":[[[[211892.64626280114,1498180.6086777237],[211895.96084434708,1498180.605818711],[211895.9610113093,1498184.6024861557],[211892.6464302629,1498184.6053452627],[211892.64626280114,1498180.6086777237]]]]},"properties":{"height":6.0,"min_height":0.0},"id":"b6d5d0d5-19d5-45f1-9e94-18fd4db5ad04"},{"type":"Feature","geometry":{"type":"MultiPolygon","coordinates":[[[[211941.8247108974,1498019.4096912048],[211942.96971803706,1498027.0805775053],[211931.77665630623,1498028.7523138174],[211930.63152535917,1498021.0703576023],[211941.8247108974,1498019.4096912048]]]]},"properties":{"height":6.0,"min_height":0.0},"id":"101d02c9-b739-45ae-81c3-990a1ddfa44e"},{"type":"Feature","geometry":{"type":"MultiPolygon","coordinates":[[[[211940.99513145967,1498080.5533370147],[211941.41912664514,1498083.6818454482],[211937.41702250665,1498084.2125187737],[211937.00385765493,1498081.0838924695],[211940.99513145967,1498080.5533370147]]]]},"properties":{"height":6.0,"min_height":0.0},"id":"19bce023-37ef-4e99-b458-87dfe525c4cd"},{"type":"Feature","geometry":{"type":"MultiPolygon","coordinates":[[[[211941.71415216912,1498090.8859224154],[211946.17452196043,1498090.6602543138],[211946.40682289773,1498095.0861672093],[211941.94657430792,1498095.3229052036],[211941.71415216912,1498090.8859224154]]]]},"properties":{"height":6.0,"min_height":0.0},"id":"d6c067f4-83bc-47e1-ac18-cdeb2e82ce88"},{"type":"Feature","geometry":{"type":"MultiPolygon","coordinates":[[[[211972.11542569287,1498030.7380146156],[211977.92472986842,1498031.0401628916],[211977.76457742072,1498034.2414524085],[211971.95527393132,1498033.9393042992],[211972.11542569287,1498030.7380146156]]]]},"properties":{"height":6.0,"min_height":0.0},"id":"37a22d6a-3688-4d8b-9801-dee750642c04"},{"type":"Feature","geometry":{"type":"MultiPolygon","coordinates":[[[[211956.07284257602,1498212.9103645869],[211957.40038685495,1498218.4425415127],[211951.91208984202,1498219.764364878],[211950.5737136047,1498214.2323058685],[211956.07284257602,1498212.9103645869]]]]},"properties":{"height":6.0,"min_height":0.0},"id":"e75721ff-a3d5-492d-b2be-b7cdf38c828c"},{"type":"Feature","geometry":{"type":"MultiPolygon","coordinates":[[[[211945.81909876567,1498199.3601959476],[211947.63500352204,1498205.9720269472],[211936.4034048075,1498209.072368155],[211934.57666637196,1498202.4606552774],[211945.81909876567,1498199.3601959476]]]]},"properties":{"height":6.0,"min_height":0.0},"id":"3b2ed3a6-5a63-46ee-92f2-2b4ea082a6c1"},{"type":"Feature","geometry":{"type":"MultiPolygon","coordinates":[[[[211984.0960781327,1498314.5260039652],[211984.43811240682,1498317.090777602],[211976.09882733546,1498318.2111272705],[211975.75679222477,1498315.64635359],[211984.0960781327,1498314.5260039652]]]]},"properties":{"height":6.0,"min_height":0.0},"id":"89fe72f9-9aa8-4ed2-a8c3-10e5f77be1a3"},{"type":"Feature","geometry":{"type":"MultiPolygon","coordinates":[[[[212003.39539709827,1498278.3792396723],[212005.08493801492,1498286.3209775975],[211993.78080139868,1498288.7246101554],[211992.10208769102,1498280.7827544888],[212003.39539709827,1498278.3792396723]]]]},"properties":{"height":6.0,"min_height":0.0},"id":"40a45e13-57c2-4f3a-a7d8-6a21283c2d9b"},{"type":"Feature","geometry":{"type":"MultiPolygon","coordinates":[[[[212081.3901113213,1498198.095729689],[212084.24477499514,1498205.6040951444],[212077.56750347756,1498208.1566420232],[212074.7018867301,1498200.6373249853],[212081.3901113213,1498198.095729689]]]]},"properties":{"height":6.0,"min_height":0.0},"id":"afd0eebf-5f9e-4f9a-9277-97fd769cd8e6"},{"type":"Feature","geometry":{"type":"MultiPolygon","coordinates":[[[[212064.91270375898,1498135.1807910379],[212069.53082938882,1498134.521654033],[212070.38697164896,1498140.5350162082],[212065.7688471052,1498141.1941532602],[212064.91270375898,1498135.1807910379]]]]},"properties":{"height":6.0,"min_height":0.0},"id":"7ac2d480-261c-4cde-b4cd-025b09eb42ad"},{"type":"Feature","geometry":{"type":"MultiPolygon","coordinates":[[[[211983.51810383494,1498026.4290941786],[211986.22700428602,1498024.5175393273],[211988.7023573835,1498028.0222917662],[211985.99345721438,1498029.9338464036],[211983.51810383494,1498026.4290941786]]]]},"properties":{"height":6.0,"min_height":0.0},"id":"5e1e1605-9dec-4720-8d6f-5ccaf2ce269e"},{"type":"Feature","geometry":{"type":"MultiPolygon","coordinates":[[[[212343.83759569825,1498188.9542868654],[212349.57055950369,1498187.220261642],[212350.9186022567,1498191.6561835178],[212345.1856394413,1498193.3902086192],[212343.83759569825,1498188.9542868654]]]]},"properties":{"height":6.0,"min_height":0.0},"id":"dfbab248-67cf-440d-afab-efde4ef3ef55"},{"type":"Feature","geometry":{"type":"MultiPolygon","coordinates":[[[[212342.3929686711,1498174.6329501614],[212343.80371201172,1498178.8578403883],[212336.5507074963,1498181.261576729],[212335.1507937223,1498177.0365689967],[212342.3929686711,1498174.6329501614]]]]},"properties":{"height":6.0,"min_height":0.0},"id":"2816c821-b315-4a4d-a3a4-2e42859b9876"},{"type":"Feature","geometry":{"type":"MultiPolygon","coordinates":[[[[212340.48178359878,1498182.170972921],[212341.39179181715,1498185.172415436],[212334.34156624338,1498187.2971726235],[212333.4316774892,1498184.306799972],[212340.48178359878,1498182.170972921]]]]},"properties":{"height":6.0,"min_height":0.0},"id":"f6003420-4b6b-4f84-98ea-e00231999541"},{"type":"Feature","geometry":{"type":"MultiPolygon","coordinates":[[[[212328.62104355404,1498179.2110270797],[212330.02083810588,1498183.4249648855],[212322.46565707313,1498185.9316288226],[212321.06586129073,1498181.7176912068],[212328.62104355404,1498179.2110270797]]]]},"properties":{"height":6.0,"min_height":0.0},"id":"00fe7f87-f9e7-4674-a31c-14ae0543ef91"},{"type":"Feature","geometry":{"type":"MultiPolygon","coordinates":[[[[212304.8970901618,1498188.0157022434],[212305.62658517854,1498192.3476346743],[212298.17695167242,1498193.6021282612],[212297.44757569273,1498189.2812655743],[212304.8970901618,1498188.0157022434]]]]},"properties":{"height":6.0,"min_height":0.0},"id":"6d6133e2-9dda-48c3-aa18-2dd03693a5cb"},{"type":"Feature","geometry":{"type":"MultiPolygon","coordinates":[[[[212168.29729019402,1498166.373058783],[212174.08104027447,1498165.324849359],[212174.53027906606,1498167.7888165542],[212168.74664990412,1498168.8480957544],[212168.29729019402,1498166.373058783]]]]},"properties":{"height":6.0,"min_height":0.0},"id":"5c9a6bfa-da8d-4fa1-b919-49f3c0643f6f"},{"type":"Feature","geometry":{"type":"MultiPolygon","coordinates":[[[[212292.96714864916,1498223.53957423],[212296.8543033327,1498222.4012918954],[212299.88013720966,1498232.708789098],[212296.0038148195,1498233.8469535478],[212292.96714864916,1498223.53957423]]]]},"properties":{"height":6.0,"min_height":0.0},"id":"ed43d59f-402f-47f9-9470-5244561d6358"},{"type":"Feature","geometry":{"type":"MultiPolygon","coordinates":[[[[212310.2588589572,1498201.962339392],[212311.44757891423,1498205.6914433257],[212307.19434161636,1498207.0329806083],[212306.0165720898,1498203.314828821],[212310.2588589572,1498201.962339392]]]]},"properties":{"height":6.0,"min_height":0.0},"id":"bd0bd46e-b8e3-425c-86e2-097ff5e1e09a"},{"type":"Feature","geometry":{"type":"MultiPolygon","coordinates":[[[[212308.2888044953,1498219.033199537],[212311.32546450914,1498229.340579551],[212299.88013720966,1498232.708789098],[212296.8543033327,1498222.4012918954],[212308.2888044953,1498219.033199537]]]]},"properties":{"height":6.0,"min_height":0.0},"id":"d6f31668-8f4e-436a-b889-450aaa147564"},{"type":"Feature","geometry":{"type":"MultiPolygon","coordinates":[[[[212305.52500046854,1498230.8428564593],[212306.45390345494,1498234.5858548468],[212300.19903122302,1498236.1373559174],[212299.2701273181,1498232.3943575886],[212305.52500046854,1498230.8428564593]]]]},"properties":{"height":6.0,"min_height":0.0},"id":"dc1e23e0-7b2d-4405-91bc-0227fec38b3d"},{"type":"Feature","geometry":{"type":"MultiPolygon","coordinates":[[[[212311.34706214932,1498247.275481295],[212312.57356325537,1498252.4876980197],[212303.00100214838,1498254.7505905025],[212301.76366835966,1498249.538491587],[212311.34706214932,1498247.275481295]]]]},"properties":{"height":6.0,"min_height":0.0},"id":"820fbd5b-0ef8-4558-9233-3f070d3a5019"},{"type":"Feature","geometry":{"type":"MultiPolygon","coordinates":[[[[212337.28837680432,1498264.098374787],[212338.83821713424,1498272.1523428985],[212326.41826832888,1498274.5458098995],[212324.86842406826,1498266.4918418159],[212337.28837680432,1498264.098374787]]]]},"properties":{"height":6.0,"min_height":0.0},"id":"a1266245-1ed2-4e85-9147-654b5161bb6b"},{"type":"Feature","geometry":{"type":"MultiPolygon","coordinates":[[[[212325.06189544563,1498245.4214913724],[212326.84881243587,1498253.3621725503],[212317.3614536295,1498255.4912809143],[212315.57453367958,1498247.5505998547],[212325.06189544563,1498245.4214913724]]]]},"properties":{"height":6.0,"min_height":0.0},"id":"700f2360-2c62-4fb3-a324-b346a2f630a8"},{"type":"Feature","geometry":{"type":"MultiPolygon","coordinates":[[[[212309.72093094938,1498235.1924718875],[212321.87121340417,1498232.90157068],[212323.97449621005,1498244.0383534029],[212319.32630655478,1498244.9191969195],[212318.60186605592,1498241.0521947304],[212311.08906700741,1498242.473439874],[212309.72093094938,1498235.1924718875]]]]},"properties":{"height":6.0,"min_height":0.0},"id":"5f1cae3d-76d8-4b21-8f34-f46b5ff7f743"},{"type":"Feature","geometry":{"type":"MultiPolygon","coordinates":[[[[212321.53577411827,1498214.9922232272],[212323.65048911906,1498226.1842371945],[212312.68929838162,1498228.2518640894],[212310.58540929802,1498217.0597324367],[212321.53577411827,1498214.9922232272]]]]},"properties":{"height":6.0,"min_height":0.0},"id":"8b56a25e-7cec-4f73-85f6-274392918e22"},{"type":"Feature","geometry":{"type":"MultiPolygon","coordinates":[[[[212309.17985982692,1498206.3360675955],[212313.13633261312,1498205.5955935605],[212313.8718451574,1498209.4846176624],[212309.915372976,1498210.2250916949],[212309.17985982692,1498206.3360675955]]]]},"properties":{"height":6.0,"min_height":0.0},"id":"b6dd32d0-3326-4966-b24d-e96f8fc640f3"},{"type":"Feature","geometry":{"type":"MultiPolygon","coordinates":[[[[212316.20821763517,1498194.2254337627],[212317.15083301242,1498199.230385455],[212312.1133298679,1498200.1708147572],[212311.1708337973,1498195.1769328322],[212316.20821763517,1498194.2254337627]]]]},"properties":{"height":6.0,"min_height":0.0},"id":"705f57e0-b283-48a3-9e23-ec4af91254d8"},{"type":"Feature","geometry":{"type":"MultiPolygon","coordinates":[[[[212321.93536280288,1498201.9240173995],[212312.76857630414,1498203.6510815064],[212312.1133298679,1498200.1708147572],[212321.28011762007,1498198.4437506467],[212321.93536280288,1498201.9240173995]]]]},"properties":{"height":6.0,"min_height":0.0},"id":"11be88b3-4245-4832-9c65-4d8c63766abb"},{"type":"Feature","geometry":{"type":"MultiPolygon","coordinates":[[[[212326.86525350122,1498207.029563739],[212327.38271003467,1498209.791708218],[212323.55608650506,1498210.5196980417],[212323.03862955503,1498207.7575535635],[212326.86525350122,1498207.029563739]]]]},"properties":{"height":6.0,"min_height":0.0},"id":"3338503b-e970-4a51-8768-c23e2ece2ca6"},{"type":"Feature","geometry":{"type":"MultiPolygon","coordinates":[[[[212323.03862955503,1498207.7575535635],[212323.55608650506,1498210.5196980417],[212319.42668356036,1498211.29526308],[212318.90922616218,1498208.5331186026],[212323.03862955503,1498207.7575535635]]]]},"properties":{"height":6.0,"min_height":0.0},"id":"d4f4824f-8e8e-428b-9ab5-a070b19bc408"},{"type":"Feature","geometry":{"type":"MultiPolygon","coordinates":[[[[212330.68736602872,1498192.927771051],[212334.2156065051,1498204.613694217],[212329.68100992456,1498205.9804271713],[212326.1528876766,1498194.305574018],[212330.68736602872,1498192.927771051]]]]},"properties":{"height":6.0,"min_height":0.0},"id":"ffbbd177-fa60-418f-acad-a0fb0e46b06c"},{"type":"Feature","geometry":{"type":"MultiPolygon","coordinates":[[[[212335.48254935152,1498233.4843478722],[212340.03338479158,1498232.6156366658],[212341.15927132615,1498238.537495434],[212336.61926767253,1498239.4060889415],[212335.48254935152,1498233.4843478722]]]]},"properties":{"height":6.0,"min_height":0.0},"id":"edede77d-4820-4bae-9a32-344192f01fb3"},{"type":"Feature","geometry":{"type":"MultiPolygon","coordinates":[[[[212338.9658524833,1498229.073423709],[212342.8723781156,1498228.7209837516],[212343.27983206045,1498233.3221209852],[212339.37318683555,1498233.6634912482],[212338.9658524833,1498229.073423709]]]]},"properties":{"height":6.0,"min_height":0.0},"id":"9e596fbc-d73e-4511-a603-df4988ed3c72"},{"type":"Feature","geometry":{"type":"MultiPolygon","coordinates":[[[[212340.07905934588,1498218.8759432365],[212341.28497102746,1498225.1844198958],[212334.16147226456,1498226.5460717161],[212332.96638955316,1498220.2374773726],[212340.07905934588,1498218.8759432365]]]]},"properties":{"height":6.0,"min_height":0.0},"id":"d1f4614e-c0af-4085-ae50-04966d84f182"},{"type":"Feature","geometry":{"type":"MultiPolygon","coordinates":[[[[212338.90720335732,1498212.7110203884],[212340.07905934588,1498218.8759432365],[212332.96638955316,1498220.2374773726],[212331.78370110306,1498214.0726722276],[212338.90720335732,1498212.7110203884]]]]},"properties":{"height":6.0,"min_height":0.0},"id":"864dd38c-4927-42e4-92a9-d6f36a69c29a"},{"type":"Feature","geometry":{"type":"MultiPolygon","coordinates":[[[[212337.4544839777,1498203.6263871598],[212338.2407832474,1498206.2084731753],[212330.45647923776,1498208.5626307842],[212329.68100992456,1498205.9804271713],[212337.4544839777,1498203.6263871598]]]]},"properties":{"height":6.0,"min_height":0.0},"id":"ca2c83ad-8ffa-4bd8-94ec-e4f8c19da713"},{"type":"Feature","geometry":{"type":"MultiPolygon","coordinates":[[[[212330.68736602872,1498192.927771051],[212335.5890074948,1498191.4463395998],[212339.12807648123,1498203.1321453461],[212334.2156065051,1498204.613694217],[212330.68736602872,1498192.927771051]]]]},"properties":{"height":6.0,"min_height":0.0},"id":"64744e6e-7c93-458a-844a-8c5beab388bb"},{"type":"Feature","geometry":{"type":"MultiPolygon","coordinates":[[[[212343.5679147421,1498188.0604606576],[212347.37654064852,1498200.6290233082],[212339.12807648123,1498203.1321453461],[212335.3193262514,1498190.5525134264],[212343.5679147421,1498188.0604606576]]]]},"properties":{"height":6.0,"min_height":0.0},"id":"bf2e3fee-3cc2-4ee5-91be-f778eecd1359"},{"type":"Feature","geometry":{"type":"MultiPolygon","coordinates":[[[[212345.70534849056,1498202.3410560146],[212346.44061549805,1498206.2079406048],[212339.00350115215,1498207.6172820847],[212338.26823301474,1498203.7503975003],[212345.70534849056,1498202.3410560146]]]]},"properties":{"height":6.0,"min_height":0.0},"id":"82e45a4b-20df-459b-aec8-5a69253fb534"},{"type":"Feature","geometry":{"type":"MultiPolygon","coordinates":[[[[212351.8148754182,1498197.3812581184],[212353.5761642825,1498202.9640808094],[212349.0099168268,1498204.408651598],[212347.24850668875,1498198.8147592796],[212351.8148754182,1498197.3812581184]]]]},"properties":{"height":6.0,"min_height":0.0},"id":"147e3943-eceb-4fa1-8a60-eb6b2b01678d"},{"type":"Feature","geometry":{"type":"MultiPolygon","coordinates":[[[[212352.13222537097,1498195.6839364395],[212355.8785855365,1498194.547193926],[212357.6314484016,1498200.3515296488],[212353.88508908288,1498201.4882720595],[212352.13222537097,1498195.6839364395]]]]},"properties":{"height":6.0,"min_height":0.0},"id":"ce113834-d88b-4d71-8df7-a51f91f3a620"},{"type":"Feature","geometry":{"type":"MultiPolygon","coordinates":[[[[212354.6820472058,1498235.954918617],[212357.3240697268,1498249.8204010762],[212349.02231478435,1498251.4052033443],[212346.36945701257,1498237.5398385983],[212354.6820472058,1498235.954918617]]]]},"properties":{"height":6.0,"min_height":0.0},"id":"42241d7f-7c74-40f6-b255-5c768d4caf87"},{"type":"Feature","geometry":{"type":"MultiPolygon","coordinates":[[[[212348.01002988667,1498245.969237243],[212349.73533804063,1498251.2313893964],[212344.92131613992,1498252.8004367922],[212343.20683772565,1498247.5381670932],[212348.01002988667,1498245.969237243]]]]},"properties":{"height":6.0,"min_height":0.0},"id":"0e360f4c-c764-4949-8ed1-91f00262af9f"},{"type":"Feature","geometry":{"type":"MultiPolygon","coordinates":[[[[212341.15927132615,1498238.537495434],[212343.8013012146,1498252.4029778554],[212339.2613000346,1498253.27157135],[212336.61926767253,1498239.4060889415],[212341.15927132615,1498238.537495434]]]]},"properties":{"height":6.0,"min_height":0.0},"id":"ad4fe6ba-dd6c-4d06-a865-cda84c98e3de"},{"type":"Feature","geometry":{"type":"MultiPolygon","coordinates":[[[[212352.7962052208,1498278.720806082],[212353.98575486615,1498283.5237949218],[212348.11983736523,1498284.98249144],[212346.91945590562,1498280.1796203635],[212352.7962052208,1498278.720806082]]]]},"properties":{"height":6.0,"min_height":0.0},"id":"f01ace71-02c8-44d5-810d-d817c967cfdf"},{"type":"Feature","geometry":{"type":"MultiPolygon","coordinates":[[[[212351.68179190962,1498264.8830086219],[212353.28987588175,1498272.3163639563],[212344.73107815738,1498274.16966782],[212343.12287139404,1498266.7252428012],[212351.68179190962,1498264.8830086219]]]]},"properties":{"height":6.0,"min_height":0.0},"id":"57cd2958-a1a3-4352-b93a-62958060324e"},{"type":"Feature","geometry":{"type":"MultiPolygon","coordinates":[[[[212354.132683956,1498285.08321903],[212354.64375768485,1498288.2550622441],[212349.20469408476,1498289.1223537105],[212348.69373996952,1498285.9615802423],[212354.132683956,1498285.08321903]]]]},"properties":{"height":6.0,"min_height":0.0},"id":"577eb280-be1f-454d-be8b-7f4e9472e926"},{"type":"Feature","geometry":{"type":"MultiPolygon","coordinates":[[[[212339.19720502367,1498298.209740583],[212340.7296062443,1498303.6621965657],[212333.27831741393,1498305.758105683],[212331.7459146055,1498300.3056498563],[212339.19720502367,1498298.209740583]]]]},"properties":{"height":6.0,"min_height":0.0},"id":"caf81f2e-abbc-4a1d-b2ad-b05efc056c81"},{"type":"Feature","geometry":{"type":"MultiPolygon","coordinates":[[[[212338.2419666765,1498291.0460677415],[212339.0010617997,1498295.1119724477],[212330.59065362695,1498296.6647511022],[212329.84238786792,1498292.598728697],[212338.2419666765,1498291.0460677415]]]]},"properties":{"height":6.0,"min_height":0.0},"id":"339ec0d7-0f79-43ce-87cc-b4bb29ea3b3a"},{"type":"Feature","geometry":{"type":"MultiPolygon","coordinates":[[[[212324.19440657704,1498295.17324099],[212325.6294479174,1498302.6306187056],[212317.61965781148,1498304.1679772895],[212316.1954448283,1498296.7104818833],[212324.19440657704,1498295.17324099]]]]},"properties":{"height":6.0,"min_height":0.0},"id":"03b22106-fbd6-47de-8e99-103a2ab9552f"},{"type":"Feature","geometry":{"type":"MultiPolygon","coordinates":[[[[212369.7041734439,1498295.5975983085],[212371.46845259162,1498303.44995691],[212355.84346995864,1498306.9521318797],[212354.0898964004,1498299.0885860173],[212357.47208699991,1498298.3322143073],[212358.2012178377,1498301.6345408296],[212362.22085565946,1498300.7273190927],[212361.4810149285,1498297.4361800016],[212369.7041734439,1498295.5975983085]]]]},"properties":{"height":6.0,"min_height":0.0},"id":"dda7cc02-2084-47c2-bd56-1db168e2e4e6"},{"type":"Feature","geometry":{"type":"MultiPolygon","coordinates":[[[[212437.45858284022,1498196.915794869],[212429.42264077038,1498199.0401623046],[212428.47365757794,1498195.4413048667],[212436.50960078335,1498193.3169373397],[212437.45858284022,1498196.915794869]]]]},"properties":{"height":6.0,"min_height":0.0},"id":"f7719466-d578-4951-b30c-e9d6a2921571"},{"type":"Feature","geometry":{"type":"MultiPolygon","coordinates":[[[[212434.93478256854,1498210.8816760837],[212435.86870849965,1498216.0860009668],[212428.78756830917,1498217.3585973217],[212427.85352068086,1498212.143202674],[212434.93478256854,1498210.8816760837]]]]},"properties":{"height":6.0,"min_height":0.0},"id":"811b7218-9f48-41a0-a294-cf3835e01224"},{"type":"Feature","geometry":{"type":"MultiPolygon","coordinates":[[[[212434.04694511503,1498205.9314849463],[212434.93478256854,1498210.8816760837],[212427.85352068086,1498212.143202674],[212426.96568184922,1498207.1930115283],[212434.04694511503,1498205.9314849463]]]]},"properties":{"height":6.0,"min_height":0.0},"id":"5a7cefa9-fb69-4a15-88a0-cfce32524fe3"},{"type":"Feature","geometry":{"type":"MultiPolygon","coordinates":[[[[212419.8753825212,1498194.6600943815],[212420.6240022974,1498197.7629305252],[212415.1033248792,1498199.0960755371],[212414.35458417522,1498195.9821696752],[212419.8753825212,1498194.6600943815]]]]},"properties":{"height":6.0,"min_height":0.0},"id":"9a361620-8345-4f8d-945c-a6accabffe74"},{"type":"Feature","geometry":{"type":"MultiPolygon","coordinates":[[[[212421.56234862498,1498207.3624192644],[212422.46919646504,1498213.0652361747],[212413.86176412262,1498214.4319144546],[212412.95491435745,1498208.7290974932],[212421.56234862498,1498207.3624192644]]]]},"properties":{"height":6.0,"min_height":0.0},"id":"e876385b-40a5-4c05-b507-ec3424cf99bf"},{"type":"Feature","geometry":{"type":"MultiPolygon","coordinates":[[[[212410.5183305188,1498196.8209613403],[212412.396323975,1498204.1738877466],[212405.60195064888,1498205.9194302927],[212403.71300423623,1498198.5555519327],[212410.5183305188,1498196.8209613403]]]]},"properties":{"height":6.0,"min_height":0.0},"id":"31d01076-24d0-47d7-8082-7ab144aaf72e"},{"type":"Feature","geometry":{"type":"MultiPolygon","coordinates":[[[[212396.30428404157,1498200.5845474699],[212398.96239189437,1498199.9799742196],[212400.04314488574,1498204.7398615736],[212397.38503752876,1498205.344434803],[212396.30428404157,1498200.5845474699]]]]},"properties":{"height":6.0,"min_height":0.0},"id":"fca30ba8-5e2a-4325-aa6d-cc1e41403c6b"},{"type":"Feature","geometry":{"type":"MultiPolygon","coordinates":[[[[212394.16617193655,1498201.1945427214],[212395.02513974358,1498205.4807837908],[212382.40081787336,1498208.009290403],[212381.54184793984,1498203.7230493664],[212394.16617193655,1498201.1945427214]]]]},"properties":{"height":6.0,"min_height":0.0},"id":"6dbe591d-db7b-4b0e-8a55-39c0fb89cf02"},{"type":"Feature","geometry":{"type":"MultiPolygon","coordinates":[[[[212391.35993416322,1498236.0213879226],[212393.17004224157,1498246.0985332804],[212382.77001314663,1498247.9718269322],[212380.959900952,1498237.8946815506],[212391.35993416322,1498236.0213879226]]]]},"properties":{"height":6.0,"min_height":0.0},"id":"e9047747-fc99-4fc5-9d35-b8bcbf2a1cbe"},{"type":"Feature","geometry":{"type":"MultiPolygon","coordinates":[[[[212377.01706726145,1498252.850247267],[212378.6082875523,1498261.7230246663],[212366.46764701448,1498263.9030861892],[212364.8655917762,1498255.0304264482],[212377.01706726145,1498252.850247267]]]]},"properties":{"height":6.0,"min_height":0.0},"id":"8f3f0a73-35e3-43b4-8b66-a16d7aa303c4"},{"type":"Feature","geometry":{"type":"MultiPolygon","coordinates":[[[[212372.99737043405,1498262.725030041],[212374.15044368937,1498269.1558623093],[212367.6206016392,1498270.3228487072],[212366.46764701448,1498263.9030861892],[212372.99737043405,1498262.725030041]]]]},"properties":{"height":6.0,"min_height":0.0},"id":"8d207111-c00a-416d-91cc-d9925f3a5a24"},{"type":"Feature","geometry":{"type":"MultiPolygon","coordinates":[[[[212368.91660535015,1498240.0626109792],[212370.13827212935,1498246.8248300592],[212360.81927045144,1498248.4981786679],[212359.60843191936,1498241.735841892],[212368.91660535015,1498240.0626109792]]]]},"properties":{"height":6.0,"min_height":0.0},"id":"5c2fc022-1a24-4c17-94d6-95f2d2dd5320"},{"type":"Feature","geometry":{"type":"MultiPolygon","coordinates":[[[[212364.71419053111,1498214.179832777],[212365.92009610462,1498220.4883094714],[212352.23509165714,1498223.0947836523],[212351.02930297353,1498216.7973767389],[212364.71419053111,1498214.179832777]]]]},"properties":{"height":6.0,"min_height":0.0},"id":"6b9d8cd1-bf42-4f47-878a-37d79f693f35"},{"type":"Feature","geometry":{"type":"MultiPolygon","coordinates":[[[[212373.2237924813,1498231.7235827676],[212373.81224220042,1498235.0385091207],[212368.20143947972,1498236.0515842221],[212367.6021583035,1498232.7367755438],[212373.2237924813,1498231.7235827676]]]]},"properties":{"height":6.0,"min_height":0.0},"id":"3d302015-0b96-496f-97fe-33c4b8407561"},{"type":"Feature","geometry":{"type":"MultiPolygon","coordinates":[[[[212374.70645950118,1498221.6328027507],[212376.41296344018,1498231.1464495985],[212365.14803360315,1498233.1730703432],[212363.43069472403,1498223.6595411517],[212374.70645950118,1498221.6328027507]]]]},"properties":{"height":6.0,"min_height":0.0},"id":"64827335-8352-4491-9a6c-75a4eaed1cda"},{"type":"Feature","geometry":{"type":"MultiPolygon","coordinates":[[[[212375.00055090734,1498205.8311957037],[212376.18322888744,1498211.9960009172],[212366.44374032022,1498213.851050655],[212365.27189071936,1498207.6861277772],[212375.00055090734,1498205.8311957037]]]]},"properties":{"height":6.0,"min_height":0.0},"id":"28e00766-4bad-47fb-a1fe-604de6ec35d8"},{"type":"Feature","geometry":{"type":"MultiPolygon","coordinates":[[[[212369.4606021113,1498190.4361785988],[212371.22429264768,1498196.2403970165],[212362.2739930738,1498198.9504158483],[212360.51030051336,1498193.1461976797],[212369.4606021113,1498190.4361785988]]]]},"properties":{"height":6.0,"min_height":0.0},"id":"306ba2c2-76b7-4840-a638-5877fe0b6e89"},{"type":"Feature","geometry":{"type":"MultiPolygon","coordinates":[[[[212369.66395939846,1498174.2591408961],[212370.09199273202,1498177.764018406],[212366.68427572883,1498178.1663885096],[212366.25636220304,1498174.6725807302],[212369.66395939846,1498174.2591408961]]]]},"properties":{"height":6.0,"min_height":0.0},"id":"11a2ffc9-bc00-4a12-9685-272d28397271"},{"type":"Feature","geometry":{"type":"MultiPolygon","coordinates":[[[[212386.64176247484,1498191.5780374731],[212373.21089490596,1498195.643117111],[212371.45803556265,1498189.838780962],[212384.8889061659,1498185.7737009563],[212386.64176247484,1498191.5780374731]]]]},"properties":{"height":6.0,"min_height":0.0},"id":"447003f8-c97e-4a72-b2c0-c4a59eb31b06"},{"type":"Feature","geometry":{"type":"MultiPolygon","coordinates":[[[[212434.64840473636,1498047.8966318767],[212436.4012328618,1498055.69376176],[212423.30473060173,1498058.6369915088],[212421.55189846654,1498050.8398617853],[212434.64840473636,1498047.8966318767]]]]},"properties":{"height":6.0,"min_height":0.0},"id":"74e2cee1-a707-41df-af97-b727ff86dc5b"},{"type":"Feature","geometry":{"type":"MultiPolygon","coordinates":[[[[212434.7935093469,1498063.2506160298],[212437.93805546028,1498062.55219767],[212439.04214640614,1498067.4668271584],[212435.89772113424,1498068.176315248],[212434.7935093469,1498063.2506160298]]]]},"properties":{"height":6.0,"min_height":0.0},"id":"27d00075-56c0-4e9d-91a9-4f7a9d4fc180"},{"type":"Feature","geometry":{"type":"MultiPolygon","coordinates":[[[[212435.44539122732,1498064.4281389466],[212436.0533008232,1498070.5327611796],[212432.8505136987,1498070.8553965166],[212432.24260334246,1498064.750774218],[212435.44539122732,1498064.4281389466]]]]},"properties":{"height":6.0,"min_height":0.0},"id":"b4584bd2-e555-4c1e-a478-2d3a63b6980d"},{"type":"Feature","geometry":{"type":"MultiPolygon","coordinates":[[[[212430.622563162,1498064.1926756087],[212431.7266555201,1498069.1073050408],[212419.1812078104,1498071.9227711447],[212418.0771130303,1498067.0081418091],[212430.622563162,1498064.1926756087]]]]},"properties":{"height":6.0,"min_height":0.0},"id":"e6a84ce2-6bfd-4c23-863a-002614f232d5"},{"type":"Feature","geometry":{"type":"MultiPolygon","coordinates":[[[[212436.61468868662,1498071.3569930813],[212438.57257001556,1498080.0818646362],[212426.2216008057,1498082.8509317283],[212424.263715245,1498074.126060341],[212436.61468868662,1498071.3569930813]]]]},"properties":{"height":6.0,"min_height":0.0},"id":"c4e7f024-cc84-4502-857f-53d7e9029358"},{"type":"Feature","geometry":{"type":"MultiPolygon","coordinates":[[[[212444.08343163453,1498100.7802448694],[212444.98270810512,1498104.7892719423],[212438.07771520125,1498106.3256519039],[212437.17843764328,1498102.3166248738],[212444.08343163453,1498100.7802448694]]]]},"properties":{"height":6.0,"min_height":0.0},"id":"1eb06023-17ce-4276-b9cf-c3b0ba2c04ea"},{"type":"Feature","geometry":{"type":"MultiPolygon","coordinates":[[[[212437.71592449915,1498110.9130005545],[212438.53541869443,1498114.5575491674],[212432.13839249674,1498115.9887742372],[212431.31889738562,1498112.3442256607],[212437.71592449915,1498110.9130005545]]]]},"properties":{"height":6.0,"min_height":0.0},"id":"477bf346-a964-4250-882a-56c842d8bd84"},{"type":"Feature","geometry":{"type":"MultiPolygon","coordinates":[[[[212443.64998950128,1498135.6698622133],[212445.82814657845,1498138.746100209],[212442.30235053698,1498141.2421722868],[212440.12419313838,1498138.1659345373],[212443.64998950128,1498135.6698622133]]]]},"properties":{"height":6.0,"min_height":0.0},"id":"e23a6ce2-0147-421d-8a75-748843e1afc0"},{"type":"Feature","geometry":{"type":"MultiPolygon","coordinates":[[[[212425.65349511948,1498106.3388231627],[212435.28302421758,1498105.3263989484],[212435.69383516634,1498109.2410921182],[212426.06442778034,1498110.2645862058],[212425.65349511948,1498106.3388231627]]]]},"properties":{"height":6.0,"min_height":0.0},"id":"02f6889b-c8ae-4412-88ad-17dc7019f163"},{"type":"Feature","geometry":{"type":"MultiPolygon","coordinates":[[[[212431.31889738562,1498112.3442256607],[212432.13839249674,1498115.9887742372],[212424.94169341004,1498117.5947532847],[212424.1330280396,1498113.9500871012],[212431.31889738562,1498112.3442256607]]]]},"properties":{"height":6.0,"min_height":0.0},"id":"060f41e9-fc8c-4e3c-907a-d0501c2b2d6b"},{"type":"Feature","geometry":{"type":"MultiPolygon","coordinates":[[[[212403.2649688602,1498120.4208528588],[212408.77507312095,1498119.1099655984],[212410.53489162115,1498126.5527448568],[212405.02466871665,1498127.8525622764],[212403.2649688602,1498120.4208528588]]]]},"properties":{"height":6.0,"min_height":0.0},"id":"cd1fd84f-5468-462e-af03-4d6c938d1ff6"},{"type":"Feature","geometry":{"type":"MultiPolygon","coordinates":[[[[212410.21340718353,1498132.8556718319],[212412.8888608645,1498145.8129646275],[212405.3558155751,1498147.3672493158],[212402.68035805842,1498134.4099566021],[212410.21340718353,1498132.8556718319]]]]},"properties":{"height":6.0,"min_height":0.0},"id":"b75870e8-7dc2-4fd1-8723-0cd3905ffd3c"},{"type":"Feature","geometry":{"type":"MultiPolygon","coordinates":[[[[212414.10963455366,1498142.5226687724],[212418.71379817405,1498141.5758979921],[212419.30850292544,1498144.4700560723],[212414.71517058887,1498145.4167091872],[212414.10963455366,1498142.5226687724]]]]},"properties":{"height":6.0,"min_height":0.0},"id":"533feb92-7ec8-4006-b52f-b15e7ed4670c"},{"type":"Feature","geometry":{"type":"MultiPolygon","coordinates":[[[[212419.74279882148,1498146.5577691135],[212420.92101652885,1498152.3129936366],[212416.3276856079,1498153.259646722],[212415.13863610232,1498147.5045398741],[212419.74279882148,1498146.5577691135]]]]},"properties":{"height":6.0,"min_height":0.0},"id":"49984ca6-5ff3-4a14-a962-13f6c0c0030a"},{"type":"Feature","geometry":{"type":"MultiPolygon","coordinates":[[[[212400.9264932713,1498150.4488385934],[212405.7791616001,1498149.4440102326],[212406.83078833728,1498154.5142040171],[212410.19205842004,1498153.8244967267],[212412.62731950736,1498165.6108659348],[212404.4026753726,1498167.3165889],[212400.9264932713,1498150.4488385934]]]]},"properties":{"height":6.0,"min_height":0.0},"id":"7150ca70-d5c5-4f72-886d-8654afa2f661"},{"type":"Feature","geometry":{"type":"MultiPolygon","coordinates":[[[[212426.28206648713,1498187.1396734],[212427.77317169355,1498192.780788276],[212414.37973305967,1498196.3029572973],[212412.8995758898,1498190.6727947588],[212426.28206648713,1498187.1396734]]]]},"properties":{"height":6.0,"min_height":0.0},"id":"1602a936-ea5f-4bb5-83c8-8cb7416bb340"},{"type":"Feature","geometry":{"type":"MultiPolygon","coordinates":[[[[212433.1088599683,1498180.400736601],[212435.80911573482,1498190.6564206828],[212427.7623409538,1498192.7809059296],[212425.06196170487,1498182.5141523508],[212433.1088599683,1498180.400736601]]]]},"properties":{"height":6.0,"min_height":0.0},"id":"764f3885-c5b4-4f90-8465-3c80daa59d88"},{"type":"Feature","geometry":{"type":"MultiPolygon","coordinates":[[[[212430.02451126935,1498151.7380497344],[212434.05031444307,1498150.3990056466],[212436.2673103825,1498157.0507736187],[212432.25233899552,1498158.3896998966],[212430.02451126935,1498151.7380497344]]]]},"properties":{"height":6.0,"min_height":0.0},"id":"40566ce9-9fe9-4eef-9aca-68e78b11da17"},{"type":"Feature","geometry":{"type":"MultiPolygon","coordinates":[[[[212454.37243665528,1498148.5176089064],[212459.46061668603,1498147.2555984552],[212463.59527143766,1498163.9169180966],[212458.50709473254,1498165.1789283338],[212454.37243665528,1498148.5176089064]]]]},"properties":{"height":6.0,"min_height":0.0},"id":"e4078928-2c85-4cb2-9cde-685b130a157c"},{"type":"Feature","geometry":{"type":"MultiPolygon","coordinates":[[[[212472.56721801404,1498164.195888396],[212475.0041640459,1498173.148048632],[212462.1196380983,1498176.6535919558],[212459.68268755334,1498167.7014321228],[212472.56721801404,1498164.195888396]]]]},"properties":{"height":6.0,"min_height":0.0},"id":"5428a5f0-3cd5-4da5-b090-d85c9594b28d"},{"type":"Feature","geometry":{"type":"MultiPolygon","coordinates":[[[[212485.49699728377,1498160.86699709],[212485.35328016093,1498163.592037883],[212481.24203437212,1498165.0427126277],[212479.33450060588,1498164.9416481485],[212479.496752717,1498161.9285584046],[212485.49699728377,1498160.86699709]]]]},"properties":{"height":6.0,"min_height":0.0},"id":"dab63dda-6a0c-4ab1-b27c-a686a4dff546"},{"type":"Feature","geometry":{"type":"MultiPolygon","coordinates":[[[[212493.48804480693,1498160.5920038004],[212494.98995499528,1498167.229397471],[212484.37905043032,1498169.6363445064],[212483.62779344537,1498166.2899733535],[212487.36645499442,1498165.4411824427],[212486.6266302541,1498162.1500423923],[212493.48804480693,1498160.5920038004]]]]},"properties":{"height":6.0,"min_height":0.0},"id":"7e53a3cb-987a-463d-8098-3972b8995d44"},{"type":"Feature","geometry":{"type":"MultiPolygon","coordinates":[[[[212490.4968792257,1498145.4903546693],[212492.8024297197,1498152.318299768],[212488.19404936803,1498153.8740114595],[212485.8992081912,1498147.034879179],[212490.4968792257,1498145.4903546693]]]]},"properties":{"height":6.0,"min_height":0.0},"id":"fda26ab3-5ebe-48ab-b996-465e3ae8303e"},{"type":"Feature","geometry":{"type":"MultiPolygon","coordinates":[[[[212476.76186828618,1498150.4775748008],[212479.140681462,1498160.0614169184],[212463.59527143766,1498163.9169180966],[212460.70694581413,1498152.301535481],[212464.62840959965,1498151.3289745084],[212465.13791589043,1498153.3605154029],[212476.76186828618,1498150.4775748008]]]]},"properties":{"height":6.0,"min_height":0.0},"id":"33aa2d3c-d27e-4046-b007-fb4a94c154e2"},{"type":"Feature","geometry":{"type":"MultiPolygon","coordinates":[[[[212470.83594531898,1498144.419640301],[212474.61070908926,1498143.9025877647],[212475.05762416776,1498147.1526248218],[212471.28298110503,1498147.6807471334],[212470.83594531898,1498144.419640301]]]]},"properties":{"height":6.0,"min_height":0.0},"id":"a18423c1-eae8-43f4-9c2a-33ff8d73ebd8"},{"type":"Feature","geometry":{"type":"MultiPolygon","coordinates":[[[[212472.6691545038,1498128.7009704383],[212476.54802034347,1498127.7953010134],[212477.6046929994,1498132.3340294433],[212473.7258278497,1498133.2396988347],[212472.6691545038,1498128.7009704383]]]]},"properties":{"height":6.0,"min_height":0.0},"id":"12b39f0e-11a3-4e30-8c2e-ff107a83a2d3"},{"type":"Feature","geometry":{"type":"MultiPolygon","coordinates":[[[[212483.2668201882,1498139.0369518353],[212484.05550942314,1498141.8404347624],[212477.52201812062,1498143.6716898826],[212476.73332816997,1498140.868207026],[212483.2668201882,1498139.0369518353]]]]},"properties":{"height":6.0,"min_height":0.0},"id":"764213d9-f430-48ec-abeb-ed0257a64086"},{"type":"Feature","geometry":{"type":"MultiPolygon","coordinates":[[[[212478.7539965175,1498117.4752600205],[212480.6662666882,1498124.9938817266],[212471.851688142,1498127.2373980635],[212469.93941537302,1498119.7187765415],[212478.7539965175,1498117.4752600205]]]]},"properties":{"height":6.0,"min_height":0.0},"id":"5160d15f-682a-470a-a811-c0664c17724e"},{"type":"Feature","geometry":{"type":"MultiPolygon","coordinates":[[[[212474.79711483576,1498110.2002648332],[212476.164863826,1498115.4552336002],[212467.84789614042,1498117.6379911064],[212466.46919444157,1498112.3720703502],[212474.79711483576,1498110.2002648332]]]]},"properties":{"height":6.0,"min_height":0.0},"id":"b33f4410-1c1e-4933-8dc4-52dd583ac36d"},{"type":"Feature","geometry":{"type":"MultiPolygon","coordinates":[[[[212465.7692202885,1498118.7344599192],[212467.6515371045,1498125.4895037392],[212459.55215000955,1498127.758469976],[212457.6590002881,1498121.0035439972],[212465.7692202885,1498118.7344599192]]]]},"properties":{"height":6.0,"min_height":0.0},"id":"0b63d51c-3489-4342-8111-bfe5edf279da"},{"type":"Feature","geometry":{"type":"MultiPolygon","coordinates":[[[[212469.11844746064,1498130.8983901585],[212470.28896979755,1498134.948755487],[212463.87485577608,1498136.8008593805],[212462.70433242508,1498132.7504941612],[212469.11844746064,1498130.8983901585]]]]},"properties":{"height":6.0,"min_height":0.0},"id":"854abe67-a0de-423e-a87f-34b53d168fc3"},{"type":"Feature","geometry":{"type":"MultiPolygon","coordinates":[[[[212470.28896979755,1498134.948755487],[212471.33590517362,1498138.5908339324],[212464.92179206404,1498140.4429377294],[212463.87485577608,1498136.8008593805],[212470.28896979755,1498134.948755487]]]]},"properties":{"height":6.0,"min_height":0.0},"id":"9bb22c65-1c95-4b6b-b9c9-b93be1c56d93"},{"type":"Feature","geometry":{"type":"MultiPolygon","coordinates":[[[[212449.86972215452,1498136.8644058541],[212452.3739938201,1498141.0442080116],[212447.45571925916,1498143.9871752467],[212444.95144690585,1498139.8073734513],[212449.86972215452,1498136.8644058541]]]]},"properties":{"height":6.0,"min_height":0.0},"id":"5a6f5039-2231-46d8-9657-9bffa792672f"},{"type":"Feature","geometry":{"type":"MultiPolygon","coordinates":[[[[212455.35871936358,1498115.6590644207],[212456.81372958102,1498119.9720451618],[212448.7516426611,1498122.6834517804],[212447.29663110152,1498118.3704712545],[212455.35871936358,1498115.6590644207]]]]},"properties":{"height":6.0,"min_height":0.0},"id":"16c1c654-2f92-494e-b70f-3a59955fc285"},{"type":"Feature","geometry":{"type":"MultiPolygon","coordinates":[[[[212452.37949526624,1498107.642762826],[212453.1989873622,1498111.2873115237],[212446.75863717363,1498112.71900331],[212445.9391441556,1498109.0744546496],[212452.37949526624,1498107.642762826]]]]},"properties":{"height":6.0,"min_height":0.0},"id":"a4b31f3d-aa55-4594-b496-01462393727c"},{"type":"Feature","geometry":{"type":"MultiPolygon","coordinates":[[[[212454.11708731373,1498098.080637648],[212455.2879731591,1498102.164212182],[212447.6966632979,1498104.3390939902],[212446.5256560095,1498100.2444498297],[212454.11708731373,1498098.080637648]]]]},"properties":{"height":6.0,"min_height":0.0},"id":"b2dbfac4-22d4-4498-b7b0-fb3153f9d40f"},{"type":"Feature","geometry":{"type":"MultiPolygon","coordinates":[[[[212448.3905004977,1498085.4443308893],[212454.9419307104,1498084.266068769],[212455.59860010672,1498087.8791727999],[212449.04717082228,1498089.0574349244],[212448.3905004977,1498085.4443308893]]]]},"properties":{"height":6.0,"min_height":0.0},"id":"a12b8da2-0ed1-488c-b40f-d55f61203440"},{"type":"Feature","geometry":{"type":"MultiPolygon","coordinates":[[[[212467.98277395254,1498097.1439984334],[212468.5440189655,1498099.9499515747],[212464.37187642313,1498100.781309208],[212463.8106309502,1498097.9753560738],[212467.98277395254,1498097.1439984334]]]]},"properties":{"height":6.0,"min_height":0.0},"id":"0e2d159b-5875-434f-9b13-ce44bc310153"},{"type":"Feature","geometry":{"type":"MultiPolygon","coordinates":[[[[212467.94335086842,1498092.516724523],[212468.20675484336,1498094.8277148225],[212462.6350368664,1498095.4528517197],[212462.3716323896,1498093.1418613838],[212467.94335086842,1498092.516724523]]]]},"properties":{"height":6.0,"min_height":0.0},"id":"cdb4b2ef-3c79-4254-80f0-3f5220353fdb"},{"type":"Feature","geometry":{"type":"MultiPolygon","coordinates":[[[[212467.42351591145,1498088.5367895255],[212468.13264371542,1498092.990724161],[212460.44434496097,1498094.2145439326],[212459.73521581397,1498089.7606092617],[212467.42351591145,1498088.5367895255]]]]},"properties":{"height":6.0,"min_height":0.0},"id":"62319a1a-be9a-4696-b14e-9d1c2633e0be"},{"type":"Feature","geometry":{"type":"MultiPolygon","coordinates":[[[[212460.55276084796,1498072.281600346],[212461.10810512287,1498075.5415309996],[212457.74550215114,1498076.1094623988],[212457.19015744602,1498072.8495317393],[212460.55276084796,1498072.281600346]]]]},"properties":{"height":6.0,"min_height":0.0},"id":"84a9f7c5-2798-4578-848f-631e570f96b8"},{"type":"Feature","geometry":{"type":"MultiPolygon","coordinates":[[[[212464.11007800006,1498071.6894125817],[212464.66542181995,1498074.949343228],[212461.10810512287,1498075.5415309996],[212460.55276084796,1498072.281600346],[212464.11007800006,1498071.6894125817]]]]},"properties":{"height":6.0,"min_height":0.0},"id":"2aa2f82e-ecab-4c80-aeb6-a24b27cb3e3c"},{"type":"Feature","geometry":{"type":"MultiPolygon","coordinates":[[[[212451.77934544667,1498060.364788973],[212457.53869162197,1498059.0622789022],[212459.17683281784,1498066.273888387],[212453.42843928997,1498067.5873505084],[212451.77934544667,1498060.364788973]]]]},"properties":{"height":6.0,"min_height":0.0},"id":"56b36a01-8b80-4565-90e7-2239908bb41d"},{"type":"Feature","geometry":{"type":"MultiPolygon","coordinates":[[[[212452.4154540425,1498074.0527797407],[212453.16213644645,1498077.974895804],[212446.54656153388,1498079.2313521751],[212445.79975787835,1498075.2981663633],[212452.4154540425,1498074.0527797407]]]]},"properties":{"height":6.0,"min_height":0.0},"id":"77c6b76e-8b49-498b-8110-65f137ed082a"},{"type":"Feature","geometry":{"type":"MultiPolygon","coordinates":[[[[212451.77934544667,1498060.364788973],[212453.42843928997,1498067.5873505084],[212443.05528980214,1498069.9474401693],[212441.4061930164,1498062.7248787622],[212451.77934544667,1498060.364788973]]]]},"properties":{"height":6.0,"min_height":0.0},"id":"93aac8c5-49f6-4d2d-87a8-6a11b50cb05f"},{"type":"Feature","geometry":{"type":"MultiPolygon","coordinates":[[[[212485.46787063527,1498053.4559258055],[212486.114906948,1498057.1798449948],[212479.45504182694,1498058.3482043326],[212478.80800454057,1498054.6242851322],[212485.46787063527,1498053.4559258055]]]]},"properties":{"height":6.0,"min_height":0.0},"id":"c61e535c-9f88-4ac4-817c-ba52d2e94bb3"},{"type":"Feature","geometry":{"type":"MultiPolygon","coordinates":[[[[212488.38192379777,1498066.443841683],[212488.94207305432,1498070.14656229],[212482.22625415836,1498071.149463366],[212481.66622414417,1498067.4578124762],[212488.38192379777,1498066.443841683]]]]},"properties":{"height":6.0,"min_height":0.0},"id":"2ae0548e-4963-44fd-a6ce-b978ef5b3e7a"},{"type":"Feature","geometry":{"type":"MultiPolygon","coordinates":[[[[212496.31782171637,1498154.8486073154],[212497.30240224575,1498159.7313213898],[212490.03916781826,1498161.1940832818],[212489.05458589375,1498156.3113692303],[212496.31782171637,1498154.8486073154]]]]},"properties":{"height":6.0,"min_height":0.0},"id":"41d83cd0-81e8-4afb-ace9-782d4dc60448"},{"type":"Feature","geometry":{"type":"MultiPolygon","coordinates":[[[[212471.00789326063,1498206.1278503314],[212473.29022265377,1498212.8121224754],[212462.99462145928,1498216.3227634572],[212460.72312013875,1498209.6383741095],[212471.00789326063,1498206.1278503314]]]]},"properties":{"height":6.0,"min_height":0.0},"id":"17793d8b-f7bc-45b6-b6a9-b138241d13e4"},{"type":"Feature","geometry":{"type":"MultiPolygon","coordinates":[[[[212462.5561279711,1498187.919188905],[212466.72943283484,1498202.1555262774],[212445.82522416225,1498208.283460587],[212441.65202793287,1498194.0581942652],[212462.5561279711,1498187.919188905]]]]},"properties":{"height":6.0,"min_height":0.0},"id":"47eca372-1b8b-49e3-a2fb-63aa6b94a799"},{"type":"Feature","geometry":{"type":"MultiPolygon","coordinates":[[[[212541.71844160167,1498255.9325007596],[212545.59464374091,1498254.7833038555],[212546.62917354202,1498258.2815936438],[212542.7420210222,1498259.4198383512],[212541.71844160167,1498255.9325007596]]]]},"properties":{"height":6.0,"min_height":0.0},"id":"1a471a24-3158-4c16-b250-b58993d1e815"},{"type":"Feature","geometry":{"type":"MultiPolygon","coordinates":[[[[212565.76526505983,1498191.0718054627],[212567.09625496663,1498198.9288707587],[212556.90042921522,1498200.6559491951],[212555.56943616533,1498192.7988838493],[212565.76526505983,1498191.0718054627]]]]},"properties":{"height":6.0,"min_height":0.0},"id":"ca2df629-daa1-437f-a739-e3cc49b08220"},{"type":"Feature","geometry":{"type":"MultiPolygon","coordinates":[[[[212583.89647741907,1498209.8839398704],[212584.6478132768,1498215.2341702112],[212580.44055335765,1498215.8223307712],[212579.68933680485,1498210.4831701356],[212583.89647741907,1498209.8839398704]]]]},"properties":{"height":6.0,"min_height":0.0},"id":"cdee6c6d-28b4-471d-8ae3-c50afccc1aa8"},{"type":"Feature","geometry":{"type":"MultiPolygon","coordinates":[[[[212583.78376524575,1498267.3439090932],[212585.3589693847,1498271.755226008],[212579.5431001928,1498273.8333037482],[212577.96789506933,1498269.4219870132],[212583.78376524575,1498267.3439090932]]]]},"properties":{"height":6.0,"min_height":0.0},"id":"c9dd2782-5aa0-4a2f-9554-14d93af9a58d"},{"type":"Feature","geometry":{"type":"MultiPolygon","coordinates":[[[[212611.95494843292,1498214.2070178376],[212613.15419839392,1498218.910264532],[212609.03863244294,1498219.962409089],[212607.83938172448,1498215.2591624483],[212611.95494843292,1498214.2070178376]]]]},"properties":{"height":6.0,"min_height":0.0},"id":"1285c9f3-96ae-424b-8ed5-d2655462e91e"},{"type":"Feature","geometry":{"type":"MultiPolygon","coordinates":[[[[212611.23089780007,1498211.369619209],[212611.95494843292,1498214.2070178376],[212605.7869537174,1498215.7796413547],[212605.06290239852,1498212.942242775],[212611.23089780007,1498211.369619209]]]]},"properties":{"height":6.0,"min_height":0.0},"id":"92226ff8-9ced-4e79-b21a-42cc91bc4b92"},{"type":"Feature","geometry":{"type":"MultiPolygon","coordinates":[[[[212616.5455874087,1498287.8460680516],[212618.79406090803,1498294.4089304698],[212611.14274867554,1498297.0383385585],[212608.88332237396,1498290.4645243064],[212616.5455874087,1498287.8460680516]]]]},"properties":{"height":6.0,"min_height":0.0},"id":"16f63fb2-f072-4b07-bdfa-e554155aedcd"},{"type":"Feature","geometry":{"type":"MultiPolygon","coordinates":[[[[212622.80746845232,1498174.1891556971],[212625.4638340145,1498177.4152072314],[212625.212636979,1498180.2189085048],[212622.28521589353,1498179.9628396537],[212622.80746845232,1498174.1891556971]]]]},"properties":{"height":6.0,"min_height":0.0},"id":"d7ab1792-3e26-419c-8ce3-53b0418d8600"},{"type":"Feature","geometry":{"type":"MultiPolygon","coordinates":[[[[212615.49868717114,1498187.4208991325],[212608.02617665945,1498189.5612347203],[212606.6975576448,1498184.9147475972],[212614.18090023892,1498182.774294292],[212615.49868717114,1498187.4208991325]]]]},"properties":{"height":6.0,"min_height":0.0},"id":"087f1a52-bb07-46ab-9ea3-01d3e8370b77"},{"type":"Feature","geometry":{"type":"MultiPolygon","coordinates":[[[[212617.64771423803,1498173.8466097035],[212619.7421420177,1498181.186118938],[212604.2246515749,1498185.6169276496],[212608.01929647033,1498198.9052729271],[212600.57916156104,1498201.0341888717],[212594.67924771446,1498180.406453025],[212617.64771423803,1498173.8466097035]]]]},"properties":{"height":6.0,"min_height":0.0},"id":"17cdbb20-ee61-4852-b96d-7c67fb9bbdc8"},{"type":"Feature","geometry":{"type":"MultiPolygon","coordinates":[[[[212830.9912937536,1498062.6811575184],[212834.7512732857,1498061.7989763753],[212836.67028197908,1498069.9485795046],[212832.9103036513,1498070.830760586],[212830.9912937536,1498062.6811575184]]]]},"properties":{"height":6.0,"min_height":0.0},"id":"61dcc127-e8d1-459e-a10c-0494ebb0e449"},{"type":"Feature","geometry":{"type":"MultiPolygon","coordinates":[[[[212745.4276099357,1498088.508135823],[212749.03252135997,1498096.296243514],[212742.9860155796,1498099.0853236115],[212739.39205329056,1498091.308168678],[212745.4276099357,1498088.508135823]]]]},"properties":{"height":6.0,"min_height":0.0},"id":"7d9f2881-2d31-4358-a39b-511670ee4b81"}],"crs":{"type":"name","properties":{"name":"urn:ogc:def:crs:EPSG::32644"}}}