{"crs":{"type":"name","properties":{"name":"urn:ogc:def:crs:EPSG::5070"}},"type":"FeatureCollection","features":[{"type":"Feature","geometry":{"type":"MultiPolygon","coordinates":[[[[1826175.0263030252,2187484.770231257],[1826173.2236424594,2187481.9861280853],[1826172.3577109172,2187478.7671203883],[1826172.5164311868,2187475.433120721],[1826173.6685391197,2187472.298939221],[1826175.7176020085,2187469.664013306],[1826178.4612877178,2187467.8027992705],[1826181.6333692607,2187466.8596145795],[1826184.92945976,2187466.958268038],[1826188.0322933763,2187468.0584370703],[1826190.651181609,2187470.080041649],[1826192.5155746075,2187472.8211790016],[1826193.3797287096,2187475.464439662],[1826193.5334891283,2187478.239290617],[1826192.98284176,2187480.9745442215],[1826191.7552073116,2187483.4810562553],[1826189.9350287912,2187485.5831342917],[1826187.6479113335,2187487.149316102],[1826185.0413265275,2187488.0648044753],[1826182.3013366924,2187488.2699321914],[1826179.5904300648,2187487.7685105153],[1826177.1118250536,2187486.5739586945],[1826175.0263030252,2187484.770231257]]]]},"properties":null,"id":""},{"type":"Feature","geometry":{"type":"MultiPolygon","coordinates":[[[[1826083.8448307489,2187202.1305656345],[1826077.0823214047,2187175.7847620198],[1826078.271146954,2187175.1561573055],[1826079.0997426398,2187173.8672532714],[1826079.4751170415,2187172.2758328496],[1826082.5534994453,2187172.2770366627],[1826085.7897518086,2187172.994368681],[1826088.3190571978,2187174.1202787412],[1826092.3989125495,2187176.912176342],[1826095.2894774338,2187180.0794240977],[1826097.1606096434,2187184.214403195],[1826097.6276424497,2187188.651047744],[1826097.0964864346,2187192.5070420834],[1826095.3379110019,2187196.936508088],[1826093.027412196,2187200.3152589104],[1826089.7495541158,2187202.7639277996],[1826087.489825858,2187204.1410007253],[1826086.8967364656,2187203.0460562157],[1826085.5220854813,2187202.238528677],[1826083.8448307489,2187202.1305656345]]]]},"properties":null,"id":""},{"type":"Feature","geometry":{"type":"MultiPolygon","coordinates":[[[[1826234.6445639818,2187201.525578062],[1826235.1217386054,2187201.3619828974],[1826235.3313572495,2187201.02020545],[1826235.4127729773,2187200.6021586396],[1826236.3581348625,2187200.4224346997],[1826236.5283910243,2187200.830810474],[1826236.7813844064,2187201.14363731],[1826237.2556268813,2187201.612216192],[1826237.6016902456,2187202.2231576345],[1826237.7509673594,2187202.902744088],[1826237.7158821314,2187203.561853134],[1826237.5011446518,2187204.1440626094],[1826237.4531792016,2187204.6390401646],[1826237.451520565,2187205.156448047],[1826236.536173225,2187205.354758746],[1826236.3204754698,2187204.993196605],[1826235.9448783235,2187204.8355541453],[1826235.5371521432,2187204.923478779],[1826234.6445639818,2187201.525578062]]]]},"properties":null,"id":""},{"type":"Feature","geometry":{"type":"MultiPolygon","coordinates":[[[[1824077.4104427537,2178482.1259497893],[1824072.6848881764,2178455.7583296434],[1824105.2157545325,2178124.8303572927],[1824790.9587505232,2178177.0682929186],[1825383.2356514528,2178225.3944256194],[1825383.844024864,2178227.5628249394],[1825385.1071236792,2178229.4366745814],[1825387.105294704,2178230.528618275],[1825389.2227781927,2178231.0043067285],[1825396.500297888,2178230.8427471407],[1825396.9588519584,2178235.438223945],[1825397.9546230289,2178238.6298792833],[1825399.3901976948,2178241.0506332275],[1825401.164991461,2178243.712368879],[1825403.2734140288,2178245.98092015],[1825405.192741648,2178247.8827587683],[1825407.7411189072,2178249.599066727],[1825410.5539525861,2178250.81384861],[1825413.5717365856,2178251.743217004],[1825418.780550223,2178252.1415396943],[1825418.9451727974,2178246.289052567],[1825416.1636028383,2178246.2207612027],[1825414.1187703689,2178245.9117579088],[1825411.9238105689,2178245.1071427367],[1825409.8774658414,2178243.854262738],[1825411.6785265803,2178241.068172018],[1825409.5137696767,2178239.2581113772],[1825407.7063549464,2178237.2100341646],[1825406.4364643018,2178234.8167936048],[1825405.567565698,2178232.621551612],[1825405.480715443,2178230.5414582407],[1825408.900705366,2178230.3113562963],[1825409.592139228,2178232.2001561876],[1825410.379326177,2178233.536189765],[1825411.7099294364,2178234.9771956755],[1825412.9165330853,2178235.848198542],[1825414.5357577186,2178236.356127389],[1825416.3572154571,2178236.992231048],[1825417.9463850043,2178238.1029194556],[1825419.1498156944,2178238.7315425426],[1825420.5465679981,2178239.014480594],[1825421.7894174864,2178238.927487004],[1825423.1589833528,2178238.375564151],[1825424.317556252,2178237.4402635866],[1825425.293077316,2178236.1856977516],[1825426.0047440683,2178235.0645969952],[1825426.6307753779,2178234.2339992346],[1825427.5304784963,2178233.19170414],[1825428.390460206,2178232.4277130673],[1825429.2326200616,2178231.3373462935],[1825429.7198523795,2178230.255437495],[1825430.0622439368,2178228.8747691116],[1825432.8213165689,2178228.673118622],[1825438.3342472704,2178336.2213791534],[1825393.9185497812,2178338.4059638414],[1825393.9692931513,2178340.4200211028],[1825382.1319391655,2178341.302622964],[1825379.9401784693,2178341.983083616],[1825378.4025330434,2178343.3583992827],[1825377.5794150261,2178345.2817088156],[1825377.222227207,2178347.6024121],[1825376.4616211362,2178372.3230200596],[1825367.7114927196,2178553.0750795724],[1825366.031374245,2178589.154500038],[1825364.4545284258,2178623.1870984067],[1825361.2300016917,2178691.4427191224],[1825355.0935490383,2178759.196591864],[1825352.780430853,2178783.5630275835],[1825351.4376850594,2178797.7792876707],[1825350.0706133388,2178812.2084380398],[1825348.6988518904,2178826.694014712],[1825348.229210681,2178831.611673252],[1825347.7560965463,2178836.470981994],[1825342.8798992909,2178886.410660123],[1825342.543038852,2178889.6681588786],[1825342.7589635053,2178891.0537514957],[1825343.6100967212,2178891.8985744556],[1825344.6312916372,2178892.2771731424],[1825345.6319615676,2178892.121645873],[1825346.3135334265,2178891.603302679],[1825346.7039606778,2178890.1649164716],[1825347.1072747137,2178886.808005903],[1825347.655329436,2178886.8565452374],[1825352.5747535625,2178836.6969170203],[1825373.878531743,2178837.1350960047],[1825380.5008519636,2178837.268083584],[1825400.7446189716,2178837.6752856537],[1825406.4884474273,2178837.77397333],[1825418.5409275342,2178838.05837293],[1825427.2073406924,2178838.2471256536],[1825450.3981782591,2178838.750272377],[1825453.3289173823,2178838.842254994],[1825451.841890662,2178873.586459523],[1825449.7010470699,2178876.4995923815],[1825446.0375097373,2178881.9306598953],[1825442.750419293,2178888.79664357],[1825440.3324778785,2178895.1884728866],[1825438.8801658864,2178901.646659941],[1825438.1066981577,2178908.0000971057],[1825437.8512778473,2178913.140816936],[1825438.263358952,2178918.5538260383],[1825439.1580599102,2178925.0240363376],[1825440.9636973205,2178931.9389404305],[1825443.3184767913,2178937.9476191117],[1825447.5175933198,2178945.7369708335],[1825445.5977393123,2178980.3446976733],[1825441.4903039874,2178980.2056668755],[1825418.3207077393,2178979.4312958485],[1825404.5274900028,2178978.644778523],[1825395.849003332,2178978.1424972145],[1825368.7699760075,2178977.448496385],[1825338.891194009,2178977.349343864],[1825344.2478011712,2178922.264432608],[1825343.726781654,2178922.2107542064],[1825344.1529176547,2178918.318421241],[1825343.9200717148,2178917.29704584],[1825343.2359675048,2178916.5836134474],[1825342.285603888,2178916.233203496],[1825341.4685791582,2178916.3399337954],[1825340.5509642118,2178916.8372004163],[1825340.08488095,2178918.085171892],[1825339.7436242488,2178921.836407495],[1825338.0973456642,2178938.5470824717],[1825336.8829461064,2178950.9755611857],[1825335.6987566927,2178963.0199390957],[1825334.3011034632,2178977.3958514608],[1825333.7639198257,2178982.746345845],[1825333.4858166003,2178985.315795689],[1825332.446978554,2178994.586859706],[1825327.1164875044,2179051.680003682],[1825325.511654065,2179068.87219117],[1825324.2400764527,2179082.529880309],[1825322.9582220274,2179096.2311735116],[1825321.793592786,2179108.7404047297],[1825321.5771038372,2179111.0482133436],[1825321.1479053055,2179115.5381509764],[1825320.7690128332,2179119.522152161],[1825320.4874052622,2179122.6545856115],[1825319.2856053612,2179135.431212596],[1825319.0204715047,2179138.164804196],[1825318.5636193072,2179143.027937033],[1825318.1764025986,2179147.4126989045],[1825317.8848302378,2179150.4047089107],[1825316.4996200774,2179164.910110639],[1825315.1420533354,2179179.0423134333],[1825313.7832675967,2179193.2892916393],[1825312.4394297872,2179207.4362327806],[1825311.110088365,2179221.448511512],[1825309.7875404097,2179235.3588325414],[1825308.4181483232,2179249.8334359564],[1825307.049962373,2179264.193259272],[1825305.7107759556,2179278.2837602235],[1825304.3289767492,2179292.8474894143],[1825302.9633385541,2179307.1964039644],[1825301.674442496,2179320.7809627983],[1825300.2849201115,2179335.3773893537],[1825298.9269653496,2179349.693592155],[1825297.6141791507,2179363.525660845],[1825296.2608953724,2179377.7854305506],[1825294.897334113,2179392.0888039893],[1825293.553405333,2179406.235712199],[1825292.2167219203,2179420.3152881954],[1825290.84679179,2179434.755234957],[1825289.4618998016,2179449.295213711],[1825288.1158283881,2179463.487639242],[1825286.762047231,2179477.712766982],[1825285.405691796,2179491.948793867],[1825284.0404124786,2179506.3323002225],[1825282.6397685853,2179521.1217036624],[1825281.3861365477,2179534.3003290216],[1825280.8363316448,2179539.52126851],[1825280.6235588396,2179542.324720411],[1825281.0047711502,2179543.921840747],[1825281.4612111645,2179545.0534147522],[1825282.1857048809,2179545.9604686913],[1825283.4758709883,2179547.0237753815],[1825285.5497955605,2179547.7193874395],[1825287.6242053201,2179547.8282916285],[1825301.9966305764,2179548.6362153054],[1825315.3820637185,2179549.3957832595],[1825329.3369543767,2179550.1859515477],[1825343.6133388516,2179551.1094040317],[1825343.5342472824,2179552.943296028],[1825354.6349256556,2179553.4639204512],[1825366.6711073762,2179554.0323260906],[1825366.8047169237,2179552.2227812908],[1825380.742858254,2179552.9745749645],[1825394.6131993758,2179553.7219284694],[1825409.2130683174,2179554.514582904],[1825423.9159289636,2179555.30851209],[1825423.4487480442,2179563.1378620756],[1825423.7317647683,2179564.895967196],[1825424.7690838133,2179566.521084779],[1825426.6323372356,2179567.270668078],[1825428.7488718207,2179567.493090039],[1825573.3791130998,2179575.4213107955],[1825568.1137245432,2179657.5794727397],[1825561.1841533908,2179737.849724653],[1825516.227982274,2179734.611485907],[1825516.0871447085,2179737.3283395777],[1825516.0017014677,2179738.67747377],[1825515.8785051173,2179740.040726946],[1825514.4265515876,2179758.2239970993],[1825454.254291599,2179754.0709879054],[1825318.973846691,2179744.1006379733],[1825304.6882926663,2179743.071428069],[1825262.6044886797,2179740.027920593],[1825259.6512217675,2179778.7644504956],[1825463.1956988128,2179793.4235203005],[1825539.6680464705,2179798.931296642],[1825535.5139225672,2179860.697148857],[1825509.9606167104,2179858.76199683],[1825509.0277145524,2179858.703312127],[1825508.1192746244,2179858.6503903735],[1825507.0216221393,2179858.63343867],[1825302.4588577303,2179843.6984766363],[1825298.6860370124,2179843.419609341],[1825288.3237719128,2179848.3888231646],[1825288.2445298657,2179850.004056475],[1825288.0440128292,2179851.87838141],[1825287.2781195845,2179862.3643416883],[1825287.1034154992,2179864.3483038135],[1825286.8491978177,2179867.510194635],[1825286.1679490812,2179874.713775864],[1825289.7755543566,2179877.0823951485],[1825295.420542544,2179880.8859565808],[1825297.4468470602,2179881.0525909583],[1825326.0260843409,2179883.1475650785],[1825331.0870946103,2179883.51127393],[1825336.28113782,2179883.894816884],[1825340.672299629,2179884.2158059524],[1825345.9178355488,2179884.5999785233],[1825349.8695797343,2179884.88650111],[1825355.096240098,2179885.277739758],[1825360.3799790398,2179885.6824274575],[1825366.9626463791,2179886.162972021],[1825377.749384694,2179886.9549787766],[1825384.8723379467,2179887.5167854177],[1825396.97688283,2179888.377615543],[1825414.9947002265,2179889.7109425957],[1825426.332000666,2179890.540660578],[1825478.9015735884,2179894.4100164715],[1825503.5698823638,2179896.228659769],[1825501.1595297004,2179922.206103306],[1825501.0441581951,2179923.7553014355],[1825500.91607481,2179925.5776586086],[1825500.4748085795,2179930.409952154],[1825546.5349364905,2179933.816399727],[1825539.7833780583,2180024.9445448425],[1825537.7897155685,2180024.7855306496],[1825535.8746549163,2180048.4403090933],[1825537.9549868798,2180048.596729949],[1825528.2566516802,2180167.6470610895],[1825526.1677471679,2180167.4540962954],[1825524.2305269034,2180192.334828556],[1825526.2314045674,2180192.4265109324],[1825517.590360623,2180302.7853907864],[1825515.1976876953,2180302.5668792604],[1825513.202976632,2180326.15684331],[1825515.622671683,2180326.3702158723],[1825506.6361863213,2180429.9739403655],[1825506.4142965325,2180432.924836792],[1825506.1855984959,2180435.97768687],[1825500.9538335837,2180487.8816910074],[1825500.5027456344,2180490.7095493227],[1825500.0572426305,2180493.5502298074],[1825468.702565675,2180689.1705442923],[1825468.3117638761,2180691.632891482],[1825424.382421293,2180686.10437404],[1825424.9650167886,2180682.1338518923],[1825423.0062490387,2180681.937021665],[1825422.841674613,2180683.037380646],[1825422.6873732805,2180684.094134393],[1825422.4013148148,2180685.8562552733],[1825274.9286823438,2180667.211204374],[1825273.5113685282,2180666.980876493],[1825218.628291004,2180660.242356703],[1825178.434961967,2180655.1120612742],[1825175.4342519606,2180657.5119054425],[1825175.0577284407,2180661.4849332045],[1825174.2841363198,2180669.5181992333],[1825176.2403948947,2180672.027142502],[1825216.485897586,2180677.008649727],[1825187.0411626615,2180904.8010035334],[1825189.2716417313,2180907.5701710572],[1825428.736298983,2180937.7392282453],[1825410.6091139487,2181048.647289348],[1825405.341187834,2181080.2108301385],[1825402.8526625105,2181095.192651646],[1825401.0274134886,2181106.1539279786],[1825395.7740920866,2181137.801443068],[1825391.4128382949,2181164.0555237033],[1825382.7616819933,2181222.5062650577],[1825382.3199378315,2181225.221248478],[1825378.415255026,2181249.281612196],[1825377.9508416215,2181252.129330599],[1825376.9093365064,2181258.1203978285],[1825378.5828568474,2181258.6872869725],[1825379.7637577876,2181259.080579783],[1825380.8305222502,2181259.4469813607],[1825381.1747210938,2181259.666153734],[1825384.5107248179,2181261.8329077195],[1825387.2480405914,2181265.262385139],[1825388.7776755616,2181269.580973764],[1825388.184203923,2181275.0217384896],[1825386.6678009832,2181279.485631279],[1825383.3788268433,2181283.474358537],[1825379.9368142167,2181285.26383114],[1825376.8519263358,2181285.7566817044],[1825376.2002838263,2181285.8562897113],[1825375.281280092,2181285.812360772],[1825374.0615259765,2181285.7666110736],[1825372.4187329244,2181285.6902286466],[1825364.9140555437,2181332.4444256555],[1825359.2361989229,2181361.4374596286],[1825356.1138037695,2181381.045051509],[1825330.4487554915,2181541.0349188508],[1825327.6674361136,2181557.478057848],[1825327.6066882946,2181557.808935733],[1825326.5711874,2181563.8474315433],[1825326.3012845828,2181565.3947294834],[1825323.105330947,2181583.9263812536],[1825322.815327401,2181585.595512958],[1825321.9029944888,2181590.8921016306],[1825289.8071750377,2181781.204653599],[1825289.6314058728,2181782.279355641],[1825284.6875265276,2181811.479757401],[1825284.3706050601,2181813.3726713597],[1825275.3394410762,2181861.5275265994],[1825268.8521056403,2181906.9563941094],[1825253.2638468787,2181900.6256502694],[1825246.1137133215,2181898.0320044816],[1825240.687989213,2181895.9712220305],[1825239.5745245565,2181895.547791114],[1825234.544221814,2181893.269507558],[1825230.481209211,2181892.4733179687],[1825224.5462695346,2181892.0990655744],[1825216.5009854988,2181891.5152658024],[1825203.8112251603,2181890.6311504557],[1825186.1345880032,2181886.8461900903],[1825178.94212159,2181885.381761725],[1825172.758723848,2181885.6969214724],[1825169.7996125834,2181889.1995557556],[1825166.2939729944,2181891.077609553],[1825164.7901076,2181901.332109288],[1825159.0986706966,2181940.17120776],[1825146.0426962234,2182018.7784186983],[1825145.0094654278,2182024.990020193],[1825143.6593435518,2182035.6144164097],[1825113.400599008,2182030.63716727],[1825096.91992277,2182027.7669434124],[1825095.4622820856,2182034.465372988],[1825044.989697203,2182026.394555455],[1825043.9444500727,2182030.8313554963],[1825141.0787564318,2182047.6633509784],[1825145.450114163,2182048.4286033395],[1825146.6714370744,2182050.9140513614],[1825149.2333290738,2182052.530192061],[1825151.9965527197,2182052.743974598],[1825155.1651282785,2182052.040705917],[1825159.4027040317,2182052.0955755077],[1825273.9207184862,2182072.3115751697],[1825289.1337132584,2182071.8343185773],[1825284.4392914611,2182146.278872065],[1825272.7035809502,2182149.8191593024],[1825274.621680181,2182156.979300802],[1825275.7137154443,2182160.999181459],[1825276.8685013785,2182165.263974822],[1825278.7122232702,2182172.118935619],[1825282.8491649458,2182170.884475206],[1825279.3096514593,2182218.0779601918],[1825277.6100075976,2182243.440184259],[1825271.9679476707,2182244.9643512196],[1825273.8171023568,2182251.6134806215],[1825274.8110728199,2182255.1730169808],[1825275.9017362888,2182259.089020868],[1825277.8415453176,2182266.047171822],[1825279.3406631232,2182265.7100213734],[1825276.384766535,2182298.704107852],[1825273.2536840742,2182329.666314481],[1825234.2884922188,2182326.0772576677],[1825230.1247120658,2182363.504300591],[1825019.397400842,2182344.0017023887],[1825017.1442486453,2182343.631960487],[1825014.7850178618,2182343.8585653636],[1825013.0413926556,2182344.978109786],[1825012.0216883284,2182347.4073241404],[1825008.7680302614,2182386.015168159],[1825009.0813605639,2182388.045049321],[1825009.8448036688,2182389.479093393],[1825010.8619443816,2182390.420607385],[1825012.6783687528,2182390.744991131],[1825222.483228628,2182410.6517048376],[1825225.2015277874,2182416.642639045],[1825222.0334757986,2182449.149450407],[1825261.5554889422,2182453.1114304373],[1825252.20028926,2182550.471399301],[1825252.555424707,2182552.177473422],[1825253.3813423766,2182553.419161618],[1825254.9153190218,2182554.321411871],[1825257.8226384835,2182554.7993532815],[1825257.3544362658,2182557.9913489087],[1825253.3851699515,2182558.7705097105],[1825240.1631266247,2182557.703124641],[1825235.6501667663,2182558.964019003],[1825185.900610157,2182554.410193459],[1825182.6157313879,2182590.2607922074],[1824993.367382181,2182573.5055968133],[1824992.1184546978,2182573.913233074],[1824991.1124986883,2182574.677275349],[1824990.2379654013,2182575.759936663],[1824989.9066592013,2182577.166187136],[1824986.2496090832,2182616.0241444916],[1824986.599312778,2182617.9360266807],[1824987.6931211806,2182619.5744754714],[1824989.3729278257,2182620.4419917944],[1824990.9990272427,2182621.1357677514],[1825132.616331617,2182633.3995002513],[1825177.7776066836,2182636.9755629725],[1825171.5962353726,2182704.1427082242],[1824981.2057963384,2182687.6818437744],[1824978.7525248558,2182688.381046409],[1824977.3286324793,2182689.713982878],[1824976.429197243,2182691.5962120877],[1824973.471993257,2182731.171332315],[1824974.2653002914,2182733.2452588505],[1824975.6328806856,2182734.269342039],[1824977.3229333526,2182735.0932505056],[1825167.100434159,2182753.055276422],[1825160.5698190369,2182818.782354712],[1824971.9351910665,2182802.3665580126],[1824969.8095564381,2182802.843784364],[1824967.9167182378,2182803.939664063],[1824966.7352319653,2182806.2156885224],[1824963.1407540517,2182845.537093138],[1824963.24868514,2182847.817744176],[1824963.8780753096,2182848.9440601347],[1824965.1348713893,2182849.7809577524],[1824967.7505344716,2182850.546796751],[1825155.7768409005,2182867.3487252137],[1825148.9788096575,2182937.787875027],[1824954.3197797318,2182919.4575240393],[1824950.6557883292,2182955.4947614907],[1825053.1140730602,2182976.26373543],[1825054.7387586546,2183013.075387728],[1825058.4200063653,2183096.293139216],[1825083.706850791,2183104.2073960504],[1825083.848825099,2183107.8768210104],[1825084.9956667747,2183137.039196751],[1825085.446670062,2183148.525129562],[1825032.378115928,2183163.6243229564],[1824939.9188530967,2183189.9238944026],[1824941.1701765787,2183223.3910439685],[1825086.5856713091,2183181.2986186272],[1825092.8075741108,2183323.20979378],[1825092.970686573,2183325.365376026],[1825093.1325681244,2183329.5342595973],[1825093.155193179,2183330.241471244],[1825093.533529759,2183335.025164642],[1825093.8136151133,2183339.751188106],[1825093.8693850515,2183340.71934705],[1825094.480284928,2183357.075583728],[1825095.2769930388,2183378.411779928],[1825103.828203338,2183557.19712874],[1825104.2643586537,2183565.8605487254],[1825105.8581426681,2183602.9065045933],[1825095.2213833386,2183607.3037684043],[1825101.7797092758,2183629.5604251283],[1825113.0311987516,2183626.424140123],[1825122.010028412,2183659.181103577],[1825110.5466035886,2183663.1073800265],[1825116.8778460931,2183686.254071296],[1825128.2571133878,2183683.159441789],[1825150.1257652869,2183763.724817006],[1825153.2556316769,2183775.2667617416],[1825206.9506969892,2183976.5198834953],[1825225.368152995,2183971.0454546465],[1825244.6542153817,2184041.9704318233],[1825227.769186304,2184047.184593314],[1825206.5994916407,2184053.241524856],[1825200.0490122573,2184055.230199883],[1825212.240396229,2184097.673449527],[1825206.3957737894,2184099.368211076],[1825031.8273305264,2184149.761380595],[1825030.781982205,2184150.401022219],[1825029.921243876,2184151.4983912315],[1825029.4095157417,2184152.355830659],[1825029.0638818606,2184153.494040866],[1825028.8940828613,2184154.616155573],[1825029.0601886779,2184155.9555010744],[1825051.238405382,2184235.926285603],[1825052.2394650432,2184237.1172080943],[1825053.2729434613,2184237.8785338784],[1825054.3453075534,2184238.292330479],[1825055.4227198628,2184238.46568613],[1825056.910438705,2184238.3215092584],[1825236.439357506,2184186.877663525],[1825250.4805678765,2184237.8574656164],[1825254.9168462912,2184236.590251345],[1825267.048966673,2184233.109615867],[1825277.9040108758,2184229.9378420445],[1825279.7893250664,2184236.5380558027],[1825263.5858762795,2184241.233817032],[1825265.6797104743,2184248.0442583486],[1825275.6187956624,2184245.254937451],[1825276.3720348196,2184247.8257760205],[1825241.5620660894,2184257.997204522],[1825242.2827140386,2184260.560356472],[1825246.9771831664,2184277.1772407987],[1825248.072318029,2184281.0713339183],[1825287.5502129323,2184269.963509593],[1825292.4488185358,2184287.940275918],[1825258.6169920813,2184297.502172311],[1825267.5978764005,2184328.4881432843],[1825282.856415186,2184383.2414326407],[1825297.0645742957,2184430.6248269435],[1825329.2409197409,2184420.8226032434],[1825350.092376832,2184496.9154278534],[1825142.440048296,2184557.663354923],[1825149.291073356,2184580.092816422],[1825356.4354605032,2184517.5570487105],[1825381.5709249652,2184608.5710158693],[1825387.9489282528,2184631.7638359494],[1825375.0075916753,2184635.4676472778],[1825360.5662709204,2184639.6233609314],[1825336.0469025935,2184646.6850463813],[1825180.1116149814,2184691.6264728345],[1825187.2249716655,2184714.6931623034],[1825393.774360489,2184655.8044614005],[1825403.3523924479,2184691.476573106],[1825403.5198547607,2184692.079857669],[1825405.201743077,2184698.045378253],[1825413.3524840034,2184727.7659898927],[1825364.4332263984,2184741.675529602],[1825287.977156419,2184763.4086330193],[1825240.195760925,2184777.3108551283],[1825212.3348094306,2184785.4146824633],[1825221.1643593544,2184818.643272916],[1825210.1719825524,2184822.035693498],[1825209.7997829663,2184822.1550812833],[1825205.106582012,2184818.9662854923],[1825203.8425351856,2184814.767728783],[1825200.3740360276,2184816.0903957835],[1825197.5551612985,2184817.174962101],[1825199.9972587982,2184827.323771034],[1825201.033232164,2184829.351416268],[1825202.7023726564,2184830.699842996],[1825204.9552678487,2184831.10426717],[1825207.0684365681,2184830.5322441924],[1825223.1808707467,2184825.9993159496],[1825241.4763134588,2184820.6347097154],[1825326.3112870671,2184795.755996296],[1825328.6856077444,2184795.0614548717],[1825330.2677897154,2184800.4281340986],[1825365.6345119716,2184790.5154283373],[1825363.8738017287,2184784.738452828],[1825377.4289632495,2184780.765142643],[1825398.2932497587,2184774.648601847],[1825499.180455262,2184745.0635233633],[1825519.025361662,2184768.450930061],[1825541.0852672418,2184848.3046543677],[1825439.600643068,2184876.8507104046],[1825438.8883918242,2184877.062524579],[1825433.3893325394,2184878.6428484265],[1825431.3036021406,2184879.244294512],[1825426.9404618966,2184880.4940554425],[1825423.1223393553,2184881.5846329504],[1825368.760576192,2184897.202646683],[1825248.9117455485,2184933.0202742205],[1825260.4259045138,2184972.957084534],[1825262.269874385,2184975.2787517933],[1825266.4977976617,2184976.390361466],[1825270.1359951182,2184976.0627588327],[1825440.618343125,2184924.094103158],[1825553.6721118332,2184893.0285636955],[1825569.79298446,2184950.563815629],[1825566.5078660625,2184950.1230579233],[1825563.5940400267,2184950.770887989],[1825560.6661152784,2184951.5879913406],[1825558.2308356087,2184953.4532510424],[1825555.9245182462,2184956.303944185],[1825554.2252316016,2184959.8270342043],[1825553.787540716,2184963.1067337855],[1825554.1071036411,2184966.0931871175],[1825555.0124932637,2184969.148705948],[1825557.351038045,2184972.035798434],[1825562.0387722552,2184974.809325029],[1825567.8814879793,2184977.901160279],[1825570.874153541,2184979.837848427],[1825572.629230614,2184981.9890651624],[1825574.1252034076,2184985.27586633],[1825576.6215800513,2184998.038153681],[1825573.6482236406,2184998.902070252],[1825485.65883416,2185024.426666169],[1825368.4306712407,2185058.432243671],[1825279.58494021,2185084.2055087215],[1825274.6695165012,2185086.521794508],[1825271.5705671676,2185089.853065641],[1825269.8410209653,2185094.818838245],[1825272.4964291665,2185103.878867748],[1825281.9915676315,2185136.723763428],[1825284.257567382,2185144.5528901014],[1825287.9814275568,2185147.9850567337],[1825292.7840536989,2185149.5773580666],[1825298.154150059,2185148.9446297185],[1825387.311178641,2185123.1990806283],[1825496.6753996657,2185091.608969902],[1825571.593010299,2185069.9759029113],[1825572.9326607184,2185075.458098198],[1825583.026368278,2185072.7403303133],[1825583.9233950514,2185076.633854504],[1825593.8674242208,2185073.857800089],[1825619.2963697808,2185167.8308290327],[1825314.36936612,2185255.851953062],[1825325.2596525298,2185292.4087123885],[1825629.1152315766,2185203.894042418],[1825662.4751421215,2185323.3599511427],[1825356.6986959307,2185411.3505842504],[1825367.9410899132,2185448.818933034],[1825593.600102724,2185381.7179382667],[1825615.56361888,2185465.68055422],[1825399.5682867581,2185529.811620907],[1825411.941473731,2185572.1492351517],[1825629.6872677954,2185509.236899556],[1825640.4517389457,2185554.4176619877],[1825648.646219902,2185587.186931246],[1825641.9932013247,2185589.139302471],[1825639.6837688724,2185589.8144853245],[1825636.7834719135,2185590.661033468],[1825641.6920835804,2185608.1459731734],[1825648.6040744516,2185606.116587066],[1825651.1158912869,2185605.385566653],[1825653.5548143596,2185604.6718797586],[1825669.186890614,2185663.7150276224],[1825670.2839465179,2185667.5982186347],[1825674.7206586082,2185683.3265224895],[1825683.2150931647,2185715.441710926],[1825693.379970205,2185716.6877586106],[1825695.2497812482,2185717.439301672],[1825696.5755981193,2185718.856525931],[1825697.44097692,2185720.694483841],[1825697.6829041878,2185722.696116768],[1825697.3201356884,2185724.4170951727],[1825696.5488802092,2185726.812691528],[1825689.103251118,2185732.8930338486],[1825687.6086905028,2185733.9789491324],[1825689.8962975743,2185740.3636033577],[1825495.7758123968,2185794.977598721],[1825506.0016476368,2185831.8615753995],[1825538.6700276996,2185821.889775449],[1825588.7729877494,2185807.318293858],[1825699.441486313,2185774.003806018],[1825714.2193745885,2185828.9681230816],[1825549.5667832845,2185877.158184628],[1825554.5089702886,2185894.535922362],[1825728.8645342162,2185845.3545647063],[1825744.8091971306,2185902.4811976915],[1825739.1380183254,2185899.613605456],[1825737.7477716324,2185893.9467928214],[1825735.6587363668,2185892.55670761],[1825703.1025006694,2185902.416077339],[1825707.3117983998,2185917.3198928866],[1825639.821448524,2185938.2617369145],[1825636.4585504842,2185926.917427321],[1825643.5328349557,2185924.891850477],[1825641.561540716,2185917.603738848],[1825532.7230970904,2185949.658497927],[1825534.6248419601,2185956.3663502373],[1825538.8893315261,2185955.0590008376],[1825541.11086024,2185963.073436386],[1825536.6444330495,2185964.4712496693],[1825537.9649873155,2185968.9018871007],[1825531.8653765707,2185970.6970813926],[1825535.9009668566,2185984.696805707],[1825734.8593119201,2185926.1857147114],[1825739.2256650617,2185934.659961746],[1825739.6186367678,2185940.908583215],[1825741.042658716,2185946.2496750215],[1825745.1324561525,2185951.264309999],[1825743.8645267715,2185958.7206979706],[1825744.44526761,2185964.829492682],[1825745.9740094778,2185972.4620546056],[1825748.9789611227,2185979.4876670255],[1825751.9801569988,2185985.1431259387],[1825757.1970682775,2185996.867171186],[1825762.8737335105,2186010.9088772144],[1825765.7868766019,2186023.539522285],[1825768.8506777456,2186035.0205287687],[1825774.9778610002,2186062.0327344057],[1825780.6905031025,2186084.091467967],[1825796.8134654134,2186145.817026661],[1825805.611265488,2186149.0652934955],[1825807.0733574517,2186156.578614885],[1825806.4572559784,2186164.8445779993],[1825804.9622899909,2186173.8468274996],[1825802.5215024364,2186181.2797820275],[1825799.505632877,2186190.3491253406],[1825798.188882632,2186200.6015797663],[1825799.7128600886,2186210.8795451447],[1825802.2113678853,2186220.7084345426],[1825813.2183843483,2186259.41141087],[1825817.807665733,2186275.7282336024],[1825824.622231711,2186299.968502379],[1825825.383042491,2186302.7598901736],[1825828.4898010504,2186314.239590504],[1825849.7431918394,2186392.605549171],[1825868.2703540518,2186460.9394279732],[1825911.280361411,2186473.5564094493],[1825981.0969165363,2186736.181582398],[1825952.0561548993,2186727.824999471],[1825947.9621335692,2186729.3218399324],[1825943.771433924,2186729.587693861],[1825935.6362810219,2186728.382463523],[1825928.3085586901,2186725.0663615647],[1825921.9383068474,2186719.5136812925],[1825911.8040245094,2186714.569143576],[1825901.7383715396,2186712.2873084997],[1825893.0654994291,2186713.325655015],[1825882.0897251181,2186711.8762976537],[1825873.7967304124,2186708.0219306555],[1825866.345745572,2186703.733290856],[1825856.463067535,2186700.930850578],[1825845.2021404004,2186699.414299818],[1825835.481328554,2186697.858244191],[1825827.8492366083,2186695.103326961],[1825820.2844810248,2186690.166556482],[1825812.6848853831,2186686.982073086],[1825803.9958754317,2186686.520867705],[1825794.603869363,2186686.9985107766],[1825787.4833163253,2186684.4448161493],[1825786.2739465972,2186680.857255702],[1825782.2789586787,2186679.892130531],[1825781.2595944556,2186674.4047831027],[1825765.738086258,2186668.8919279748],[1825771.6819979206,2186690.9132456146],[1825974.9230384657,2186753.8263516766],[1825967.6477830799,2186777.3443512544],[1825967.2509409653,2186778.516476659],[1825966.8618470342,2186779.874534289],[1825963.4922734217,2186790.770475738],[1825994.4186697975,2186912.8079637173],[1825996.6702131443,2186930.644878012],[1825998.6877851062,2186946.666106949],[1825999.7941347081,2186956.3048993326],[1826000.3802410678,2186962.023821781],[1826000.7637202656,2186966.049514123],[1826002.3390185323,2186983.7269377364],[1826004.1978757505,2186990.9772565058],[1826015.566671161,2187035.2779871635],[1826046.5004068539,2187159.239435003],[1826083.9075273762,2187310.1807683185],[1826091.9919306315,2187340.0717783137],[1826099.1924980457,2187369.0063984026],[1826111.3153339862,2187417.685304887],[1826104.175046024,2187423.675901855],[1826081.922364593,2187362.9650222086],[1826083.2946638686,2187362.287650397],[1826072.1333872746,2187326.4468838405],[1826001.0574215734,2187348.620018236],[1825997.8275714044,2187337.15708302],[1825995.6672627253,2187337.8211983703],[1826002.4650667873,2187362.886494002],[1826004.1246390059,2187362.4494688646],[1826005.3713548696,2187362.122180609],[1826002.4216106,2187351.6228221464],[1826070.700130396,2187330.0440605213],[1826080.1787440747,2187359.7116037714],[1826078.2152100382,2187360.3070473196],[1826082.8461818749,2187372.975046666],[1826013.6260333513,2187398.473884903],[1826009.681119176,2187386.9803489195],[1826007.9499674656,2187387.538566851],[1826012.7050604895,2187401.4669834594],[1826083.9466048449,2187375.4553908496],[1826102.4684021377,2187424.8957568742],[1826036.6428200144,2187480.007516833],[1826017.6047478332,2187458.7862758283],[1825986.135930574,2187366.4911688347],[1825981.4817977033,2187367.9938798645],[1826013.2358928462,2187461.449372056],[1826035.811417077,2187486.485220573],[1826036.218135011,2187499.9633082924],[1826040.4708001574,2187501.0009524296],[1826044.3318963759,2187500.8185899328],[1826043.2598899507,2187480.6823509014],[1826112.6702906205,2187422.9872833304],[1826128.8038273398,2187485.867958077],[1826118.3225555576,2187488.596497679],[1826118.8505532697,2187490.7692238903],[1826119.4947806052,2187493.3605924724],[1826114.8856499165,2187494.563153232],[1826072.251314237,2187506.9900977053],[1826070.6631159727,2187501.437498467],[1826066.3069618426,2187502.734276921],[1826070.1940366053,2187516.3314434187],[1826074.558331887,2187515.0365890604],[1826072.9362570792,2187509.372438265],[1826115.4286889704,2187497.0731188054],[1826115.2279478603,2187496.1742768865],[1826119.879514473,2187494.901180553],[1826121.2129970575,2187500.2211127784],[1826122.6620576703,2187499.838018437],[1826131.6886833392,2187497.479756135],[1826145.1923238651,2187551.858125207],[1826137.4669034928,2187558.25145048],[1826058.4825915163,2187543.8887427556],[1826049.9368935388,2187525.579621187],[1826045.8813670774,2187527.534155324],[1826044.614954914,2187531.699983811],[1826051.8398671441,2187547.2236297526],[1826148.8935514041,2187565.1123547647],[1826155.58618489,2187593.7547057243],[1826160.8528787147,2187614.224683515],[1826172.90305367,2187661.0916920016],[1826195.1965592497,2187750.671465848],[1826208.627049894,2187804.7337234397],[1826215.6382899433,2187832.9335911735],[1826235.1581698454,2187905.796082927],[1826240.4272078187,2187927.1642853073],[1826262.9009868025,2188014.692934021],[1826270.0606632356,2188041.386068923],[1826275.8362250142,2188072.378347705],[1825209.625407716,2188313.547183359],[1825198.599437269,2188285.9211006183],[1825183.867485714,2188266.062420907],[1825183.6223230634,2188251.495190014],[1825179.8157976503,2188244.994076616],[1825166.3238505034,2188241.9738683323],[1825159.487929281,2188224.034617181],[1825162.2937163468,2188198.0591662657],[1825171.0891894372,2188172.8631713907],[1825180.9538095072,2188157.1357988045],[1825176.6477996984,2188122.3035258725],[1825163.6417316936,2188091.184549993],[1825140.479013736,2188062.2618544805],[1825107.7593343263,2188018.0033317595],[1825026.951284515,2188022.239708615],[1825016.4962456839,2188017.2779165115],[1825008.460389312,2188000.413753005],[1825005.2687394486,2187977.626868206],[1825012.9902586415,2187956.837589571],[1825032.301093833,2187899.291273914],[1825077.9384515984,2187879.099242819],[1825083.929870737,2187876.772304912],[1825083.186927043,2187849.799093276],[1825080.3640481466,2187850.284172122],[1825006.0571834303,2187859.252665323],[1824967.4020008752,2187868.9406030225],[1824953.4457336944,2187866.720443832],[1824941.8585071727,2187876.334886398],[1824934.4846960353,2187867.566220648],[1824937.5046812084,2187861.029279395],[1824935.906757718,2187854.531273134],[1824932.8592019968,2187850.9362648427],[1824927.2902729,2187848.3347027083],[1824926.5803133515,2187842.483272187],[1824926.997034563,2187838.818988729],[1824928.9375747344,2187834.2712739124],[1824940.9287580699,2187825.131739255],[1824955.1987765147,2187788.6729389825],[1824955.7727959177,2187765.9224290773],[1824949.1368026445,2187735.3853895967],[1825033.7150207877,2187705.318937042],[1824971.1809874594,2187487.2961679953],[1824899.5305859128,2187509.169753751],[1824893.3479322342,2187484.366254657],[1824963.0886027315,2187459.17731785],[1824941.2984149856,2187387.2125227912],[1824868.8332581674,2187408.9290253776],[1824860.2126544125,2187384.252769312],[1824930.1502753838,2187361.111881128],[1824928.5348580943,2187356.036546811],[1824933.87016804,2187353.83089661],[1824937.8513493452,2187349.0163014205],[1824932.435948273,2187321.102871835],[1824924.8908928772,2187317.908995637],[1824847.3781649391,2187075.3244471983],[1824838.817142951,2187049.0054714303],[1824795.3615271938,2186884.994374565],[1824745.1128362468,2186738.0803296994],[1824686.5528802585,2186755.586549356],[1824614.0511748262,2186524.4286712804],[1824541.133707634,2186545.019035373],[1824537.6985999532,2186545.291087455],[1824532.8574472778,2186537.6262924033],[1824520.911145774,2186504.6076722746],[1824517.8532251935,2186487.2953337952],[1824622.5277172339,2186452.8449250134],[1824613.7968923529,2186423.9896928985],[1824525.220909299,2186452.453837871],[1824525.7641131158,2186457.2648092485],[1824513.7607006235,2186456.564767805],[1824502.8325484062,2186445.9007664463],[1824485.7666592386,2186388.2955612284],[1824480.7152214902,2186379.442181713],[1824475.6094129023,2186356.550141939],[1824465.5605594115,2186315.475895533],[1824460.88075514,2186285.44697937],[1824452.749207833,2186257.5847657914],[1824439.7234328033,2186216.6605789913],[1824423.0978653745,2186181.377604324],[1824383.9276123568,2186063.772858406],[1824281.6229512924,2186095.494952171],[1824260.5747037996,2186026.9653311865],[1824262.9597438362,2186022.0619366616],[1824264.6962532478,2186017.6845943686],[1824265.4044831628,2186013.1455223765],[1824265.8459689918,2186007.439031116],[1824265.1737131225,2185999.1229177495],[1824262.8884001316,2185989.805434799],[1824262.0058000435,2185986.2147364267],[1824257.7806279745,2185976.808403536],[1824259.3501986805,2185976.3152577127],[1824256.4189937098,2185973.024301604],[1824259.1169238358,2185972.0491167577],[1824258.31960289,2185969.4104943913],[1824253.247344711,2185971.0459057093],[1824246.4911668326,2185966.140401949],[1824241.2060815976,2185963.203839379],[1824220.2283531057,2185893.713102009],[1824319.8091515359,2185861.6585673336],[1824301.7483400395,2185784.6049930295],[1824304.013507281,2185768.6391183063],[1824311.5555618901,2185753.053560993],[1824426.4504256297,2185711.859252966],[1824414.400420315,2185668.4268401344],[1824396.579796068,2185643.8278739727],[1824384.2102700376,2185625.184749697],[1824399.2791126012,2185606.125867538],[1824402.5709601785,2185597.593113634],[1824387.8129602836,2185555.2486785855],[1824375.58646612,2185533.624734899],[1824352.1088220195,2185508.8322283477],[1824306.6265185429,2185461.3894851934],[1824305.750926576,2185460.469828266],[1824304.340822299,2185459.0445451634],[1824290.6013775968,2185445.1185499826],[1824269.772333915,2185412.3669555355],[1824258.7835858597,2185402.425812173],[1824248.8184539445,2185394.6013111128],[1824243.5484812187,2185395.833552403],[1824232.8990036272,2185364.847470016],[1824228.182963715,2185353.323567037],[1824225.5736647083,2185341.8012263826],[1824211.1130974873,2185345.3556706947],[1824180.5622100318,2185350.8035356104],[1824160.0267027274,2185301.3228976056],[1824152.590631183,2185303.2070320514],[1824139.9335211322,2185319.624346851],[1824134.517866561,2185323.008470672],[1824127.7102123892,2185321.5313560683],[1824125.8468806539,2185315.604094147],[1824127.8203271094,2185268.9637903795],[1824134.3412327077,2185249.167952823],[1824121.8707034518,2185213.7146129077],[1824111.1660782902,2185161.2343537617],[1824099.8777747417,2185141.097801453],[1824085.4435720977,2185127.3423835644],[1824077.662958623,2185110.0226720623],[1824076.7861243903,2185101.2212284137],[1824080.338051802,2185097.570610955],[1824077.5566572633,2185085.7547222725],[1824106.04863474,2185074.91973653],[1824107.695769139,2185072.2356592524],[1824087.5421203217,2184998.268851592],[1824022.7575228966,2184768.3438107693],[1824010.079210467,2184771.5592423375],[1824008.4668665023,2184756.348415238],[1824013.5456736444,2184742.7826379715],[1824024.8885480643,2184733.4421885647],[1824042.8926922225,2184727.6267438945],[1824046.753013072,2184723.105233114],[1824043.3423593561,2184715.2372768833],[1824037.2450791223,2184709.244797717],[1824032.5311325379,2184700.48307388],[1824040.1779413444,2184669.9526861017],[1824040.9623742301,2184653.914165903],[1824039.6825574506,2184630.6815114934],[1824054.379548506,2184597.4969880963],[1824070.0634883533,2184573.0132585503],[1824088.2230107004,2184554.0141467983],[1824071.1248640483,2184480.790452902],[1824047.0424870849,2184440.5775636383],[1824040.1272006636,2184433.1268198295],[1824031.0315062844,2184414.738214027],[1824023.679540529,2184403.0425297134],[1824000.1827455708,2184404.457945944],[1823981.944337662,2184395.5255021467],[1823975.9701843981,2184383.786200783],[1823969.0088856649,2184375.507792826],[1823955.9129445946,2184379.7641717023],[1823913.6508790022,2184393.7314000153],[1823864.5952872154,2184402.5435822634],[1823862.6905208041,2184395.76679833],[1823801.953141102,2184412.620634965],[1823799.0971981795,2184402.030069646],[1823793.2191987957,2184403.395690675],[1823788.8528055272,2184388.882630396],[1823907.258510117,2184347.537275869],[1823907.42865581,2184348.1296268958],[1823910.598263716,2184347.161738677],[1823912.981859289,2184346.353910774],[1823896.2030199582,2184287.9797597365],[1823895.3153164869,2184284.882736493],[1823892.4067688477,2184273.7849810524],[1823895.647504038,2184272.661244039],[1823888.9615782322,2184249.041505793],[1823887.9256109477,2184249.349808472],[1823870.6862548147,2184193.110985113],[1824060.849788301,2184134.344457103],[1824078.512986111,2184128.885681738],[1824092.5965661334,2184124.5283305473],[1824097.6505353753,2184125.6036286484],[1824101.0577774206,2184122.0569073185],[1824103.5748637244,2184121.303566876],[1824111.2902296132,2184118.748530745],[1824109.3181594382,2184112.0018274006],[1824103.5595568882,2184092.224564534],[1824097.3678352304,2184070.999111646],[1824090.5247670382,2184072.735596245],[1824088.6489094696,2184067.1506486917],[1824060.1308115546,2184074.287014405],[1824063.06256803,2184085.505392414],[1824048.330568782,2184089.9862310137],[1824051.3292129943,2184101.979743716],[1823860.5357034456,2184161.7028596383],[1823844.600076691,2184107.2669655993],[1824063.4363741793,2184038.5573909166],[1824053.671488644,2184006.169678232],[1824029.0662325374,2184013.894081028],[1823976.7457859083,2184030.313515552],[1823931.2958446557,2184044.588863874],[1823927.9053205478,2184045.6543225255],[1823885.1149921664,2184059.0834933263],[1823845.248807685,2184071.6021675016],[1823834.837192696,2184074.86867242],[1823809.0954160157,2183991.2461363985],[1823812.2840544023,2183983.5862886366],[1823809.084926059,2183969.73934035],[1823799.3250152303,2183947.2253389778],[1823779.4454120968,2183890.756483024],[1823943.8981182263,2183840.589747496],[1824072.3221447472,2183804.112239347],[1824074.4560200875,2183799.6902841376],[1824073.8679995672,2183796.525748161],[1824066.1248710821,2183791.0892715943],[1824069.5916668917,2183790.467520503],[1824066.1205642086,2183774.634847561],[1824062.4226692838,2183775.3977745073],[1824059.974329061,2183771.8411331424],[1824056.4808589348,2183769.9828442424],[1824052.4392882052,2183769.721353906],[1824043.9108978224,2183771.4177044155],[1824040.3555684737,2183769.3837725595],[1824014.4621479933,2183776.1836977564],[1823929.489235797,2183798.5138432505],[1823779.962976621,2183843.7736893864],[1823777.2423910084,2183835.3091157614],[1823764.145536282,2183838.909945094],[1823752.454498994,2183802.640661763],[1823748.622327768,2183790.7502709134],[1823773.4288688346,2183783.0838300274],[1823774.0786929068,2183780.9817160764],[1823773.8458829068,2183778.9018774712],[1823761.7501298455,2183747.565314987],[1823753.0898284912,2183720.926698423],[1823740.122499025,2183668.1568374075],[1823712.6892196424,2183674.411051623],[1823709.4136427138,2183664.1014929614],[1823592.2068821315,2183701.2814761447],[1823506.0246360346,2183654.262547973],[1823507.9247236287,2183557.37179775],[1823433.221282955,2183553.188384486],[1823434.1198206423,2183452.9094887166],[1823460.9746878417,2183448.6005639727],[1823460.9862529575,2183455.311091875],[1823480.5277306363,2183455.320943737],[1823480.3922524534,2183435.1426095846],[1823474.2260064567,2183435.2096489137],[1823474.0307604866,2183358.466862638],[1823731.7194396302,2183358.6061064396],[1823732.2290997542,2183291.555466019],[1823763.8930115043,2183291.670340893],[1823765.5728672578,2183405.0986124654],[1823788.0197964862,2183405.4481269415],[1823789.9623602976,2183389.85497037],[1823790.57746113,2183375.6981176925],[1823799.3365787326,2183375.689565397],[1823810.6268791528,2183367.4520976315],[1823818.120807699,2183364.7064217683],[1823825.9844342298,2183349.7596149147],[1824015.5935451372,2183349.812770584],[1823995.8627837847,2183342.347359625],[1823824.5920225305,2183341.6078018853],[1823824.19799612,2183328.996715323],[1823812.4612992092,2183328.936945191],[1823806.67113964,2183326.2733930633],[1823793.5373591124,2183317.4969664677],[1823783.2437885145,2183295.3062594496],[1823812.2838110442,2183295.677934291],[1823812.7769905198,2183250.2541420115],[1823865.5459546256,2183248.492975035],[1824088.816944237,2183247.5337545956],[1824089.7361295433,2183233.4023833484],[1823864.8859137886,2183236.463558622],[1823865.145102657,2183148.631717886],[1823880.6960203242,2183148.715198547],[1824094.4382597378,2183148.5952745466],[1824095.4667793943,2183148.538337344],[1824096.324009483,2183148.2224497274],[1824096.936594507,2183147.630336436],[1824097.33591666,2183146.884446804],[1824097.4110102027,2183146.200272074],[1824097.346443798,2183137.6707086843],[1824096.9552822644,2183136.9572723405],[1824096.3257611906,2183136.4523379584],[1824095.612293482,2183136.157752048],[1823881.187414675,2183137.1294952007],[1823881.4799354642,2183130.0417591464],[1823871.6010273602,2183129.9822101803],[1823871.739183951,2183125.815121017],[1823865.1080013032,2183122.849970711],[1823865.7226910195,2183107.4158463394],[1823870.744067218,2183105.307563137],[1823871.5267655123,2183104.4678474353],[1823871.3746935716,2183099.8527265834],[1823881.7301638033,2183090.727784843],[1823894.6086156082,2183087.328535747],[1823894.5919114442,2183083.124978638],[1823891.515239284,2183081.6871494697],[1823891.6154998073,2183066.6841603955],[1823894.377125248,2183064.9297270053],[1823894.665602006,2183055.4478256647],[1823896.266792259,2183055.4796848893],[1823996.0346622984,2183055.0291267126],[1824049.1092550387,2183054.790531351],[1824103.597660152,2183054.5400517588],[1824104.3129985528,2183054.351829776],[1824104.8970273195,2183054.063649351],[1824105.381451022,2183053.613941465],[1824105.6984967594,2183052.9982516044],[1824105.7713425914,2183052.1409588796],[1824105.736190441,2183046.299193504],[1824103.519070365,2183044.0972068165],[1824049.7574855532,2183043.379782035],[1824033.1617953945,2183043.1650565006],[1824022.744929432,2183043.197279647],[1823996.5106267151,2183043.2901793104],[1823901.8926286472,2183043.6072320896],[1823901.8677469592,2183041.4843021296],[1823899.4116276396,2183041.3201663247],[1823899.374943546,2183039.539632012],[1823898.9907902342,2183022.9038061933],[1823895.7969981176,2183022.8766299007],[1823896.0877403808,2182996.0674985033],[1823888.6951587147,2182996.0066258768],[1823888.8110194984,2182989.0843944866],[1823902.607743859,2182982.55314786],[1823906.982382059,2182982.570731368],[1824036.1589754336,2182982.98180778],[1824106.0024805856,2182982.4811935816],[1824106.8360426966,2182982.0101523856],[1824108.268206607,2182981.9562210743],[1824109.8749385306,2182981.1609994336],[1824110.643230603,2182981.295905904],[1824111.1603885135,2182981.0725179915],[1824111.70745408,2182980.649067177],[1824112.0699396096,2182979.9865482007],[1824112.2593331754,2182978.926583956],[1824112.3867932132,2182975.3897733004],[1824110.0378870426,2182973.053201017],[1824108.8969038953,2182973.003115919],[1824108.8713606934,2182973.330771482],[1824107.4983688097,2182973.3526142538],[1823888.6926229203,2182972.269530307],[1823887.3327357841,2182932.8870777693],[1823896.0496562445,2182926.2642358886],[1824114.2194372544,2182926.2539622565],[1824115.4101017234,2182926.1661695843],[1824116.1862921938,2182925.86571135],[1824116.6660357101,2182925.4724294334],[1824117.0255054827,2182924.7861880087],[1824117.1688175686,2182924.141089558],[1824117.3088356815,2182915.7287361054],[1824117.172580266,2182915.2479186812],[1824116.888710639,2182914.6633034404],[1824116.4384869032,2182914.2005951456],[1824115.7245481154,2182913.871383497],[1824114.6259795278,2182913.750746792],[1823887.8164145036,2182913.8437849986],[1823887.9901169026,2182889.503863021],[1823914.906962957,2182888.9614030924],[1823915.3997992252,2182888.950886405],[1823998.9545948233,2182889.0429189545],[1824060.1749183552,2182888.9964060634],[1824060.3625635004,2182870.7002289076],[1823915.1271754713,2182869.0276385313],[1823915.270273119,2182846.498411099],[1823931.6148316003,2182846.5386064374],[1823931.5005670842,2182852.5407557515],[1823937.7613370505,2182852.6227727695],[1823936.7742614914,2182755.464918315],[1823938.2962133083,2182750.024326834],[1823942.6504016563,2182746.5853163353],[1823956.9813822138,2182742.5730363643],[1823996.1323506574,2182743.7838915717],[1824043.2722926794,2182741.3188251024],[1824049.0677380625,2182738.5184006216],[1824053.0009923996,2182733.323461704],[1824052.8922182925,2182702.43898171],[1824050.2805267754,2182682.183383522],[1824043.8628134255,2182676.0812869533],[1824036.4364175757,2182675.943361067],[1823990.6617526351,2182674.6914756196],[1823981.1129706716,2182673.1908972505],[1823971.9609358602,2182670.9553287043],[1823964.0731317692,2182668.246563205],[1823958.4596193428,2182664.2093744897],[1823957.2238607686,2182648.339430181],[1823955.7354183835,2182638.657682385],[1823956.773104741,2182629.0990113886],[1823969.3528806255,2182619.554232333],[1823975.9952276386,2182601.06352744],[1824013.1530845792,2182588.3085603733],[1824036.0363221418,2182546.0049634753],[1824047.665934952,2182531.910288738],[1824065.9033381147,2182502.06669551],[1824071.5746419637,2182491.792679888],[1824076.9050380653,2182482.3818744635],[1824089.5639646424,2182464.3184294747],[1824091.5131302886,2182445.4819746595],[1824103.5211400092,2182385.280108932],[1824110.330418297,2182374.8138183802],[1824115.1777344246,2182362.412769871],[1824117.152097039,2182355.9281040262],[1824118.4401169708,2182350.82361463],[1824119.7959155743,2182343.641004924],[1824120.4496515312,2182336.005426086],[1824120.2815940443,2182311.2165818485],[1824117.0727357448,2182235.7299181353],[1824114.615065236,2182223.185027962],[1824113.0583377944,2182217.007962983],[1824110.8355651852,2182211.0652649705],[1824108.1078782498,2182204.416872435],[1824104.8033604452,2182197.9893383714],[1824098.086477287,2182188.2960254317],[1824093.7786042937,2182152.6603155457],[1824070.1050975518,2182152.82743048],[1824061.8761876212,2182152.8803305314],[1824061.943679725,2182122.083381129],[1824054.2502525686,2182121.0312507455],[1824054.4377522508,2182070.7600445515],[1824011.9885975958,2182070.096312852],[1824005.7855042976,2182063.2625074703],[1824007.371206627,2181975.661791615],[1823997.0885418572,2181973.6204150002],[1823994.9691045177,2181967.9322348093],[1823994.9810582735,2181967.18716642],[1823996.4286955597,2181860.327626353],[1823969.2050028332,2181860.441761814],[1823968.8798697405,2181848.191989033],[1823957.3294947457,2181848.2454532073],[1823954.8268362428,2181841.8457551473],[1823949.6352089285,2181835.3192242407],[1823942.9213788263,2181829.849533973],[1823936.6286890637,2181826.1358493795],[1823938.737641588,2181813.377616177],[1823925.0337377882,2181798.0930542173],[1823925.629157722,2181757.191815725],[1823965.9040731266,2181757.411825288],[1823968.2430641674,2181760.194659385],[1823970.7985426153,2181762.7523234487],[1823972.3270338983,2181764.044169815],[1823974.015999386,2181765.3853047863],[1823975.800980879,2181766.610975847],[1823977.6218952676,2181767.6840251805],[1823979.3282588292,2181767.4529517596],[1823981.0332664438,2181767.118006459],[1823984.4692556364,2181766.1550791627],[1823987.6206821047,2181764.975578146],[1823991.0594013988,2181763.5990840066],[1823993.5032626202,2181762.1724517257],[1823995.8342064028,2181760.6041752845],[1823998.0393992634,2181758.948762457],[1823999.9675675503,2181757.446737949],[1824056.149352451,2181757.4198514284],[1824056.1868662836,2181750.536643406],[1824006.517696466,2181750.1639141054],[1824010.122441324,2181744.903005417],[1824013.1868913397,2181739.3422984853],[1824015.1673711617,2181735.2062360393],[1824016.7630403922,2181731.0601126766],[1824018.0681079698,2181726.6499679196],[1824019.1488393317,2181722.2790511074],[1824019.994079814,2181717.300405622],[1824020.5257617794,2181712.3744987333],[1824020.595628934,2181707.7655775542],[1824020.400397329,2181703.1862871717],[1824019.8849550576,2181698.980334695],[1824019.1250925187,2181694.9354468286],[1824017.1676979796,2181687.3524374166],[1824015.6234155563,2181682.984792268],[1824013.685858126,2181678.7891891277],[1824010.1905193003,2181672.512438918],[1824002.970983545,2181672.5155216944],[1823998.7772329245,2181667.5240855906],[1823996.5461438785,2181665.1233341307],[1823994.194579529,2181662.832289425],[1823991.5682473197,2181660.8677543625],[1823989.2722176618,2181659.510257815],[1823986.798342748,2181658.433055012],[1823982.4484024649,2181657.2478237455],[1823977.8235371697,2181656.7917730007],[1823973.8005655203,2181656.995198461],[1823969.8835620242,2181657.844892294],[1823966.3234357357,2181659.261856955],[1823962.8726026907,2181661.1647896315],[1823959.2097941868,2181664.260451241],[1823956.1662481928,2181667.686004701],[1823954.2675093252,2181669.5746653215],[1823956.6938158756,2181671.365528935],[1823958.8680038464,2181673.3501647883],[1823962.9752497764,2181679.184149567],[1823964.6987700188,2181682.754047869],[1823965.9809859784,2181687.796352428],[1823966.3003767922,2181690.6789837726],[1823966.2813002716,2181693.5739739835],[1823965.7451436026,2181697.5323291356],[1823965.2913015333,2181699.4965354316],[1823964.7301250088,2181701.3319181353],[1823963.183714565,2181704.684232355],[1823961.4310817018,2181708.218111455],[1823958.7288322956,2181713.921636965],[1823957.4855562206,2181717.667485033],[1823956.6645282519,2181721.593287427],[1823956.144529359,2181725.336834168],[1823955.9946993396,2181729.006450467],[1823956.207019833,2181733.4401775473],[1823956.7878456393,2181737.880123928],[1823957.6630622798,2181741.8370994944],[1823959.0428024242,2181745.8438246776],[1823960.0468262674,2181748.0477162837],[1823961.1649785305,2181750.278478492],[1823925.8848640623,2181750.221934245],[1823930.1499799478,2181401.3212081194],[1824136.1828839395,2181400.399864845],[1824139.152430638,2181397.106488989],[1824140.130686703,2181303.1607182743],[1824136.4673716326,2181299.3871935178],[1823931.0857617822,2181299.5420234576],[1823932.124655538,2181248.3093634276],[1823945.053730384,2181243.8283051066],[1823958.1718609612,2181242.199204954],[1824003.1475473165,2181241.431369027],[1824002.4624217364,2181238.9688925324],[1824008.8601138187,2181238.657168278],[1824041.8501624363,2181237.4494871353],[1824070.107802694,2181235.035699303],[1824069.669397152,2181230.7213180433],[1824065.2106814696,2181187.053675854],[1824056.5936257404,2181141.348492727],[1824045.8862736719,2181103.826675273],[1824044.3642519515,2181098.4862888134],[1824042.9853550263,2181093.5247760895],[1824034.3182261002,2181095.983085523],[1824027.460049999,2181069.1935729887],[1824027.5690157153,2181064.271690858],[1824026.2275226414,2181057.616118244],[1824004.360912392,2181051.9964242056],[1824002.8446417318,2181051.858070087],[1823998.9152903832,2181051.3702329304],[1823988.1913288962,2181050.065196697],[1823984.8188741608,2181045.3477430535],[1823990.1863442431,2181028.213452638],[1823998.8997997271,2181021.4282691884],[1824002.7085324703,2181021.8071651803],[1824006.0003163158,2181022.225443765],[1824078.3257935215,2181031.095192321],[1824078.314160029,2181029.1709657167],[1824078.2115819233,2181015.535318874],[1824078.1993415256,2181013.357819302],[1824008.5945061524,2181005.5773415864],[1824004.9329705779,2181005.2676158547],[1823973.6713010632,2181001.3597481064],[1823969.1849650673,2181000.752313242],[1823959.8013307245,2180999.6017862903],[1823875.751301589,2180990.2052873527],[1823879.0717754322,2180965.5360177765],[1823879.9662326204,2180957.7154980726],[1823872.2682395165,2180956.6052136803],[1823870.4807111563,2180949.2118832436],[1823869.9252452764,2180935.159057382],[1823792.941692906,2180925.862272758],[1823782.8461208753,2180924.555896795],[1823765.6975237085,2180922.3602151135],[1823752.1221754244,2180917.668985987],[1823727.9385757856,2180907.086557019],[1823715.6566671012,2180917.335214773],[1823703.0757715905,2180914.9261817457],[1823705.0686272557,2180910.919512257],[1823701.280871394,2180908.2215404017],[1823676.3729017829,2180904.372248404],[1823682.547508088,2180883.7690405617],[1823702.2540628335,2180885.9913245616],[1823757.4278748806,2180892.5695965835],[1823760.221166576,2180892.985479904],[1823765.3597902071,2180893.746322627],[1823768.7725275126,2180865.6125416844],[1823769.364432015,2180860.7583493385],[1823776.357117451,2180810.2140020207],[1823784.0231665904,2180751.9466616353],[1823793.8636541036,2180700.1971685113],[1823796.7885662492,2180679.6919434057],[1823789.042177017,2180679.0421517426],[1823792.0962078008,2180646.5092281247],[1823918.829232925,2180661.8323606984],[1823926.4464334082,2180662.9581198916],[1823935.4126851985,2180664.2748928065],[1823950.1828041845,2180666.45167513],[1823959.515495012,2180667.8202203023],[1823974.4693427472,2180669.545547799],[1823984.208921929,2180670.5381668103],[1824001.6919051094,2180672.1570707844],[1824026.328400614,2180674.459042152],[1824030.1205352938,2180674.799485737],[1824042.9214826964,2180675.9836009075],[1824044.8514734963,2180674.4014098826],[1824047.290146783,2180657.0608283207],[1824047.890517565,2180653.669854249],[1824048.7280120226,2180647.699851624],[1824050.6266797157,2180593.102595126],[1824065.4093705048,2180581.555972807],[1824158.0643469433,2180540.569719802],[1824127.2698308905,2180520.5598200564],[1823963.554741711,2180594.074966493],[1823924.4795427008,2180587.4193876246],[1823914.684882958,2180585.746560606],[1823841.3489300702,2180573.2587139523],[1823826.6682156874,2180571.5059251557],[1823812.3626515558,2180573.9720574026],[1823782.6291210721,2180583.380591255],[1823777.3400072246,2180572.217632374],[1823931.09882027,2180503.661613642],[1823928.7754367013,2180497.7759768274],[1823860.5635803738,2180489.727484155],[1823862.4725341562,2180492.73112469],[1823862.574506382,2180493.6871004296],[1823861.885762097,2180494.675561568],[1823857.6980626537,2180498.464748139],[1823848.7758305022,2180504.0159453126],[1823819.8093826205,2180516.561975083],[1823807.6518973028,2180515.495220103],[1823809.6288989906,2180503.476759557],[1823818.2693322517,2180446.4051698735],[1824137.7879748836,2180482.132456575],[1824146.8318811415,2180471.167856706],[1823843.6034372945,2180437.629420238],[1823849.6774542986,2180396.5796247968],[1823854.5836848917,2180389.7379202438],[1823854.7371549408,2180388.4278623266],[1823858.0024385424,2180360.8460865133],[1823858.2236607478,2180358.9191553523],[1823857.1840197768,2180350.942521361],[1823864.9326853445,2180291.371295987],[1823935.9869349638,2180299.306090549],[1824044.1529734975,2180311.3869396066],[1824158.0543391125,2180321.149115857],[1824175.5099007154,2180314.005733343],[1823979.9496455635,2180290.3593361992],[1823959.2777751074,2180285.1020629243],[1823959.862596365,2180280.5338265854],[1823937.1165169517,2180277.4347100887],[1823935.6260773027,2180262.782090142],[1823940.4725178964,2180216.3461635737],[1823949.1793213785,2180190.470931233],[1823958.9111009738,2180174.133705209],[1823969.503791562,2180165.9842069154],[1823983.7619425615,2180154.2907923707],[1823988.940692323,2180146.730854488],[1823992.073148872,2180136.238479475],[1823992.9409963796,2180128.0549801583],[1823986.5958061654,2180109.751277531],[1823980.8909986112,2180101.412838369],[1823976.084797791,2180098.360019621],[1823969.8295739226,2180096.3813409167],[1823966.4576571346,2180095.461061366],[1823960.5754009674,2180095.8828628436],[1823931.021036783,2180094.3224007566],[1823895.4677710717,2180089.877273935],[1823836.70157632,2180060.293632784],[1823820.079605442,2180057.900076297],[1823803.873943476,2180052.348396642],[1823797.1022425543,2180048.3958716705],[1823638.5017918393,2180030.44406815],[1823641.2534465464,2180007.965090558],[1823642.2426908293,2179999.1543808375],[1823644.804117298,2179974.375502417],[1823852.0354825677,2179999.6427644836],[1823855.6454181604,2179969.4612201867],[1823713.2448797743,2179953.238763973],[1823711.6306364706,2179966.6427711183],[1823645.624722576,2179959.150914296],[1823649.8250925166,2179923.0563918096],[1823697.9294309423,2179928.5096478793],[1823710.6332275446,2179930.2568716714],[1823716.2295437723,2179931.159767473],[1823719.1820118637,2179907.4623815594],[1823724.3970402274,2179908.010909393],[1824092.0279491325,2179946.9775827383],[1824105.898202344,2179856.68806131],[1823742.9627095289,2179811.025913523],[1823746.2137736096,2179776.0770864473],[1823750.8075193618,2179776.5599313863],[1823755.6516903474,2179740.9850324574],[1823748.658656969,2179740.202148617],[1823755.3047930612,2179687.389947442],[1823762.0347785372,2179678.5035785334],[1823765.2151718407,2179669.414630792],[1823762.8646392394,2179657.206061425],[1823754.7004418394,2179646.735818935],[1823761.208879515,2179587.8161305757],[1823997.0337199646,2179614.6480863057],[1824007.0361017785,2179535.333705742],[1824021.3007330424,2179537.0344485906],[1824029.583948934,2179509.448539948],[1824035.9468358625,2179485.011962717],[1824036.7118153728,2179460.811043177],[1824033.5910494397,2179434.763525546],[1824020.0334087075,2179434.701967092],[1824020.1415112964,2179423.7853165274],[1823962.3042920232,2179414.912466637],[1823951.397617681,2179401.357293922],[1823997.8217856097,2179361.3476210544],[1824237.434296093,2179382.4376276904],[1824241.8542252707,2179332.219036997],[1823975.487445071,2179310.780688477],[1823977.6978437847,2179285.6658695266],[1823984.342622858,2179279.7395081357],[1823986.8742864158,2179271.579410757],[1823987.3823427532,2179269.420828018],[1823987.1881124561,2179266.406597877],[1823986.1145814434,2179262.264939978],[1823980.6796875594,2179256.1762959836],[1823993.6408341557,2179109.397443078],[1824001.812569459,2179098.2270856816],[1824012.283943882,2179098.6781456047],[1824085.090726864,2179104.7344925306],[1824243.2579318737,2179116.7551841345],[1824246.5725690152,2179077.2990904786],[1824092.4265571057,2179065.523148519],[1824085.2617028346,2179061.0062765777],[1824071.6352270336,2179059.8815483144],[1824077.1720312855,2178999.352044681],[1824152.6142166068,2179005.4422776722],[1824157.7481582798,2178955.2192062675],[1824156.9477944444,2178949.8071256573],[1824154.4911780527,2178945.1788033154],[1824150.4810188252,2178941.5194998225],[1824144.4327588356,2178939.2789539793],[1824139.01555933,2178939.476628656],[1824132.7774404637,2178942.35756226],[1824129.0828528176,2178946.3894679355],[1824127.2365424838,2178950.4306941126],[1824123.0336693816,2178983.096248625],[1824120.3492310953,2178984.408897082],[1824043.7456877748,2178977.804047705],[1824043.575982501,2178964.3367327414],[1824049.0987251664,2178893.9548975695],[1824045.210537032,2178886.815075056],[1824037.9638580533,2178885.3511034832],[1824044.20541363,2178820.580731707],[1824046.5147970843,2178820.825116975],[1824048.767305779,2178794.615582764],[1824046.2807884102,2178794.5020967512],[1824050.157608997,2178752.175413115],[1824053.8271060435,2178752.6018405682],[1824055.2411449074,2178736.975977366],[1824066.9112462252,2178738.077313123],[1824072.480097197,2178733.7616221546],[1824074.4336008267,2178712.406219839],[1824075.1677072695,2178704.386800671],[1824082.0726863022,2178704.999448145],[1824082.2307755933,2178703.6329364977],[1824082.4992967849,2178701.394956062],[1824097.010159225,2178702.750718235],[1824103.468709733,2178703.212286978],[1824119.4349746972,2178704.7840761575],[1824119.282303586,2178709.638155684],[1824135.225109932,2178710.870786426],[1824135.4151937603,2178709.258673916],[1824144.511481921,2178709.9959414536],[1824144.0694475824,2178713.6658422346],[1824129.7167450772,2178712.5888402136],[1824129.196117342,2178719.335333385],[1824146.723139124,2178720.8948427164],[1824171.6745083455,2178723.2008707942],[1824172.287828003,2178715.8778804326],[1824150.7705450298,2178714.230563054],[1824151.0990435611,2178710.787069186],[1824172.4064071325,2178712.338951909],[1824173.6458330438,2178702.355882757],[1824165.6953123691,2178701.5776065937],[1824167.337566215,2178687.213545924],[1824174.307355611,2178687.8070058627],[1824175.896927256,2178669.8637033505],[1824157.9205091004,2178668.3479599273],[1824156.33354289,2178686.2803634806],[1824163.759114276,2178686.9120564093],[1824162.1173240128,2178701.31074314],[1824110.5759660075,2178697.187633702],[1824111.9116826225,2178683.8329933276],[1824111.9712558552,2178683.214189706],[1824085.6139552218,2178680.957169887],[1824084.380247204,2178695.670497423],[1824075.8078205164,2178694.791962669],[1824079.0113996456,2178657.300351725],[1824081.5350744985,2178657.146441171],[1824083.21593417,2178634.645307408],[1824081.1849719984,2178634.351394815],[1824086.8358835399,2178565.7255135286],[1824076.0864592348,2178564.587768041],[1824075.1927649705,2178537.9944091695],[1824080.1927154055,2178524.466640874],[1824088.883017066,2178520.310281855],[1824088.4924542368,2178509.425824577],[1824082.2481060813,2178506.115233208],[1824077.4104427537,2178482.1259497893]],[[1825149.2556474796,2182266.8057121066],[1825152.5261116973,2182264.9758390496],[1825155.6354273066,2182265.1446138676],[1825158.1913458917,2182263.5721220337],[1825160.0561694894,2182261.974877504],[1825165.3456374719,2182262.3121325695],[1825169.2877767289,2182260.260810571],[1825172.3223923491,2182260.308434458],[1825174.9838400064,2182258.726291618],[1825176.8142768343,2182256.982872194],[1825181.9176028997,2182257.379836825],[1825185.9429410358,2182255.267579731],[1825188.1076839187,2182255.501470256],[1825190.6505423365,2182254.3861615597],[1825193.5949603175,2182252.4794804133],[1825194.3204696141,2182250.970498817],[1825194.5624374354,2182251.8789770175],[1825197.997615942,2182250.847343843],[1825201.6133596476,2182249.743192579],[1825202.6549742771,2182249.8505367953],[1825202.7412781196,2182250.871920793],[1825205.2873611124,2182251.0575893777],[1825208.115986386,2182249.204173976],[1825210.119737757,2182247.455570048],[1825215.1742718956,2182248.059678212],[1825218.684846675,2182245.9412103617],[1825221.5368927456,2182246.325543363],[1825224.0588742823,2182245.481475989],[1825224.5085747268,2182244.011066997],[1825227.1672412478,2182242.842509661],[1825231.6615519167,2182243.4872237453],[1825237.1706199225,2182241.1032395842],[1825236.798718444,2182237.6787772966],[1825235.4188055,2182234.4425427183],[1825233.526666603,2182232.029137557],[1825233.9722849205,2182227.508589981],[1825231.861860695,2182223.501905973],[1825232.723182125,2182220.7592292465],[1825230.7363542048,2182217.725186358],[1825228.934322061,2182215.367533299],[1825229.6561966853,2182210.8430387387],[1825227.2617954034,2182206.8730046027],[1825227.8541114263,2182204.066945136],[1825225.9090346387,2182201.3304002727],[1825224.5375838252,2182198.7520244555],[1825225.210434779,2182193.9973588684],[1825222.9366217274,2182190.136284582],[1825223.6593608346,2182187.360954645],[1825221.8260591186,2182184.2595331194],[1825221.835033942,2182180.7522193436],[1825221.9623656354,2182178.0207032287],[1825221.4893622447,2182176.632054605],[1825220.0472344912,2182172.5642191954],[1825217.686209145,2182167.6125121485],[1825215.7845521003,2182165.093316832],[1825216.0878812852,2182160.8844342814],[1825213.88273131,2182156.2571141934],[1825214.3868188574,2182153.752443192],[1825212.813798563,2182150.459213289],[1825211.7629368592,2182146.4835690632],[1825207.124287908,2182147.2546676705],[1825202.7216956858,2182149.1054485566],[1825200.154361523,2182149.3750342727],[1825197.0208693983,2182150.696377856],[1825194.4123198197,2182152.60165711],[1825190.164852576,2182152.4063501162],[1825186.443546173,2182154.3601246383],[1825183.4014123185,2182153.942532066],[1825180.3974591047,2182155.22536366],[1825178.8172574125,2182156.4179114494],[1825177.9802007116,2182157.0491474154],[1825174.2841496714,2182156.3394136815],[1825169.4361316627,2182158.729616276],[1825166.41432208,2182158.6274885437],[1825163.6928886825,2182160.3911158503],[1825161.563290289,2182161.833932201],[1825157.159720707,2182161.7169254776],[1825153.1908637902,2182163.5893749674],[1825150.8390563894,2182163.3459454007],[1825147.520882946,2182165.0495255673],[1825144.732343764,2182167.2806115346],[1825140.2038244419,2182166.927061176],[1825136.8414353111,2182168.5626958692],[1825133.9751830841,2182168.1290278877],[1825131.1150713803,2182169.64137083],[1825128.708102614,2182171.421564431],[1825127.4588915142,2182171.391891183],[1825124.2178884533,2182171.3071730654],[1825120.9584614576,2182172.9440585864],[1825118.7170960912,2182173.0718467585],[1825118.7131896361,2182176.3387117092],[1825120.5063265488,2182179.683775392],[1825121.7766407744,2182182.3993848087],[1825121.9579848843,2182187.217219267],[1825123.6593269212,2182190.5866826],[1825123.2950692463,2182193.849192217],[1825123.9136979515,2182194.7658643923],[1825126.653082148,2182198.805627903],[1825126.1049064822,2182203.1409158846],[1825127.8234354965,2182207.4234275683],[1825127.2477900512,2182210.8892717934],[1825130.6660904004,2182215.4802078907],[1825129.291803601,2182220.8750458714],[1825130.92356307,2182224.1015500864],[1825131.0926090607,2182228.387199543],[1825133.3315969335,2182232.9074002113],[1825133.386177818,2182238.1901414404],[1825135.8538542786,2182241.9587836987],[1825135.7679800226,2182242.651941345],[1825136.2091457497,2182247.2433369625],[1825138.151881456,2182250.4280497455],[1825138.867964142,2182254.9116238817],[1825141.0980173887,2182257.0594278574],[1825140.8304435702,2182260.67839978],[1825142.6704433474,2182263.4592018034],[1825143.0194983815,2182264.899184729],[1825143.7180541726,2182267.8137746183],[1825149.2556474796,2182266.8057121066]]]]},"properties":null,"id":""}]}