{"type":"FeatureCollection","features":[{"type":"Feature","geometry":{"type":"MultiLineString","coordinates":[[[213312.7018693025,1499989.9471499529],[213297.80511565745,1499956.6299593262],[213279.06439046864,1499942.3965845457],[213205.3737739551,1499951.8533129233],[213168.15693591646,1499948.7917930349],[213121.00681997702,1499940.6457885485],[213098.24398143875,1499931.0727757541],[213089.99341673864,1499921.3533753536],[213081.74730990565,1499911.0471638152],[213077.42925000808,1499887.4241728587],[213085.9321296771,1499814.58422422],[213169.75098841015,1499721.298361061],[213166.71706025337,1499709.208508105],[213139.15150641196,1499685.261984174],[213093.12202798913,1499673.6274801071],[213074.34518459882,1499657.0918110057],[213064.80243138375,1499634.101195355],[213065.8359856787,1499622.542906206],[213051.69093788805,1499603.643147605],[213047.94685413642,1499580.0139244911],[212994.28484594158,1499507.8484903288],[212906.7066894084,1499468.378637117],[212821.7593424284,1499457.7537312917],[212800.7414183527,1499449.3243875662],[212784.29259515647,1499432.7525098762],[212760.98042300926,1499425.5105638586],[212728.23956605623,1499406.812863137],[212648.34417161363,1499326.8398666591],[212604.16572623578,1499271.322412125],[212598.10524064407,1499248.869725871],[212601.45453155367,1499236.1237649778],[212586.81345743936,1499171.6167852075],[212571.5045420025,1499153.3165840223],[212526.23266762774,1499051.0358220767],[212512.0823824808,1499032.7119746055],[212488.7884047276,1499027.186002341],[212382.6044348944,1499041.0386230485],[212325.57491536322,1499033.0010682398],[212278.9025448425,1499016.1934097083],[212148.88679458806,1498922.3408662074],[212118.3790563966,1498894.9507554108],[212034.0065867484,1498724.3885809577],[211952.6278136914,1498614.9949666709],[211849.87323280174,1498569.9248612227],[211756.01907266583,1498595.1926234334],[211721.1300836394,1498593.2587666896],[211711.75564877922,1498585.8546572814],[211689.81668971188,1498545.6840324698],[211657.50312686752,1498460.0023151701],[211651.3205352553,1498425.4281071194],[211624.6028347531,1498373.175595946],[211613.5114722199,1498369.255470762],[211564.68298783078,1498367.4736318334],[211554.73611725768,1498361.2271903264],[211545.3490100443,1498352.671855223],[211521.65950677777,1498311.9335934413],[211425.9735035565,1498222.901706269],[211433.72359703854,1498187.5999129163],[211460.1708800646,1498161.3276706361],[211461.78880454216,1498149.7628356135],[211403.6117271302,1498090.3470731732],[211403.47959459166,1498078.2256084324],[211345.40289183322,1498028.0421647655],[211322.12829869462,1498025.4063548935],[211300.5454137546,1498016.9840464843],[211265.81859572773,1497976.3662393657],[211245.36477095715,1497966.19348028],[211157.86462415982,1498015.0749595996]]]},"properties":null,"id":""}],"crs":{"type":"name","properties":{"name":"urn:ogc:def:crs:EPSG::32644"}}}